{"type":"FeatureCollection","features":[{"type":"Feature","properties":{"zona":"Centro","color":"#2BD98C"},"geometry":{"type":"Polygon","coordinates":[[[-75.58782,2.01296],[-75.58825,2.01091],[-75.59099,2.01014],[-75.59412,2.00691],[-75.60113,2.00572],[-75.61614,1.99701],[-75.61623,1.98793],[-75.62393,1.9748],[-75.63153,1.96477],[-75.64104,1.95803],[-75.64158,1.94947],[-75.64738,1.93577],[-75.64124,1.92614],[-75.64127,1.92254],[-75.64298,1.91446],[-75.64969,1.90718],[-75.65176,1.90105],[-75.65615,1.8975],[-75.65969,1.89105],[-75.66802,1.89036],[-75.67473,1.88562],[-75.6882,1.88071],[-75.69299,1.87293],[-75.9375,1.87293],[-75.93452,1.87932],[-75.92751,1.88487],[-75.9288,1.89262],[-75.92009,1.89781],[-75.91991,1.89985],[-75.91828,1.90095],[-75.91522,1.90132],[-75.91133,1.90548],[-75.90799,1.90594],[-75.90351,1.90989],[-75.89875,1.90966],[-75.89569,1.91192],[-75.89314,1.91743],[-75.89427,1.92116],[-75.89276,1.92467],[-75.88914,1.92806],[-75.88909,1.9327],[-75.88657,1.93774],[-75.87964,1.93904],[-75.87801,1.94323],[-75.87165,1.94374],[-75.8673,1.95169],[-75.85829,1.95548],[-75.85049,1.96343],[-75.83943,1.96088],[-75.83462,1.96284],[-75.83677,1.96649],[-75.84114,1.97013],[-75.84191,1.97427],[-75.84049,1.97446],[-75.84056,1.9771],[-75.83543,1.98303],[-75.83708,1.98503],[-75.83574,1.98834],[-75.82084,1.99747],[-75.823,1.9997],[-75.8286,1.99938],[-75.8281,2.01575],[-75.83138,2.01848],[-75.83267,2.02362],[-75.83622,2.02666],[-75.83863,2.0321],[-75.84772,2.03273],[-75.84758,2.03545],[-75.85138,2.03805],[-75.85564,2.04576],[-75.85991,2.04688],[-75.85944,2.04864],[-75.85607,2.04909],[-75.84735,2.05875],[-75.84695,2.06281],[-75.84913,2.06908],[-75.84435,2.06953],[-75.84583,2.07543],[-75.84142,2.08018],[-75.83996,2.08645],[-75.8324,2.0935],[-75.8276,2.09372],[-75.81876,2.09675],[-75.81712,2.09898],[-75.81737,2.10356],[-75.8119,2.10168],[-75.80022,2.10578],[-75.79892,2.1079],[-75.79963,2.11672],[-75.79341,2.12124],[-75.78474,2.12224],[-75.77643,2.12071],[-75.77406,2.11369],[-75.76958,2.10824],[-75.76534,2.10692],[-75.76237,2.10985],[-75.75961,2.10881],[-75.75882,2.11062],[-75.75576,2.11209],[-75.74732,2.11416],[-75.7458,2.11951],[-75.74329,2.12146],[-75.74051,2.12924],[-75.74179,2.13325],[-75.98429,2.13325],[-75.97942,2.14055],[-75.97309,2.14403],[-75.97353,2.1501],[-75.97738,2.15448],[-75.97567,2.16184],[-75.97715,2.16363],[-75.97312,2.16562],[-75.97152,2.17024],[-75.96391,2.17298],[-75.96319,2.17578],[-75.9492,2.17824],[-75.94513,2.18191],[-75.93988,2.18319],[-75.93428,2.18853],[-75.92696,2.1926],[-75.92525,2.19633],[-75.91342,2.20608],[-75.90753,2.20022],[-75.90265,2.19989],[-75.89918,2.20152],[-75.89606,2.20085],[-75.89261,2.20299],[-75.88948,2.21053],[-75.88389,2.21645],[-75.88121,2.21655],[-75.87316,2.2207],[-75.85724,2.21144],[-75.85829,2.20882],[-75.85545,2.20948],[-75.85314,2.21273],[-75.84997,2.21229],[-75.84304,2.21496],[-75.84119,2.21431],[-75.83731,2.21227],[-75.83275,2.20736],[-75.83093,2.20464],[-75.83082,2.20029],[-75.82975,2.19935],[-75.83003,2.34846],[-75.8287,2.3487],[-75.82999,2.35079],[-75.82833,2.35292],[-75.82573,2.35341],[-75.82064,2.35163],[-75.81142,2.34576],[-75.80899,2.33764],[-75.8104,2.33487],[-75.80809,2.33401],[-75.80944,2.33302],[-75.8085,2.3317],[-75.80671,2.33286],[-75.80277,2.33157],[-75.79982,2.32754],[-75.78849,2.33025],[-75.787,2.32841],[-75.78587,2.32896],[-75.78363,2.32681],[-75.78205,2.32596],[-75.78354,2.3268],[-75.78365,2.32944],[-75.78149,2.33029],[-75.78595,2.33428],[-75.78786,2.33828],[-75.78524,2.34756],[-75.78662,2.36149],[-75.78083,2.3639],[-75.77228,2.36313],[-75.76859,2.35837],[-75.7653,2.35692],[-75.76309,2.35743],[-75.75759,2.36329],[-75.75636,2.36194],[-75.75085,2.36101],[-75.75154,2.36269],[-75.74819,2.36323],[-75.74853,2.36208],[-75.74586,2.35905],[-75.73494,2.35652],[-75.73302,2.35659],[-75.73173,2.36016],[-75.72451,2.36075],[-75.72059,2.35909],[-75.71933,2.35555],[-75.71475,2.35038],[-75.70546,2.34518],[-75.70385,2.34308],[-75.70428,2.34121],[-75.694,2.33072],[-75.68935,2.33352],[-75.6884,2.33044],[-75.68415,2.3254],[-75.68027,2.33026],[-75.68227,2.33825],[-75.68076,2.34337],[-75.6813,2.34643],[-75.67732,2.34987],[-75.67474,2.3499],[-75.66454,2.35622],[-75.66184,2.35927],[-75.66143,2.36379],[-75.65773,2.36658],[-75.64724,2.36992],[-75.64582,2.37601],[-75.6376,2.38091],[-75.6328,2.37934],[-75.6282,2.38011],[-75.61509,2.3741],[-75.61145,2.38007],[-75.60838,2.38168],[-75.61089,2.39109],[-75.60946,2.40024],[-75.60728,2.40343],[-75.60404,2.4053],[-75.60355,2.40943],[-75.59988,2.41676],[-75.59239,2.42216],[-75.59227,2.42578],[-75.58761,2.43031],[-75.5869,2.43488],[-75.58277,2.4379],[-75.5739,2.44013],[-75.57213,2.44276],[-75.56837,2.44337],[-75.56366,2.44831],[-75.56583,2.45416],[-75.5717,2.45894],[-75.56871,2.46231],[-75.56097,2.46447],[-75.55833,2.46912],[-75.56262,2.48075],[-75.56975,2.48655],[-75.56866,2.48801],[-75.56672,2.48634],[-75.56409,2.48759],[-75.56225,2.49216],[-75.55781,2.49475],[-75.55432,2.50252],[-75.54638,2.49751],[-75.54431,2.49742],[-75.54284,2.49898],[-75.54273,2.50457],[-75.54554,2.50782],[-75.54484,2.51814],[-75.53616,2.53158],[-75.52905,2.5339],[-75.52757,2.53331],[-75.5292,2.53261],[-75.52925,2.52805],[-75.52623,2.52314],[-75.52839,2.51892],[-75.52706,2.51548],[-75.52383,2.51243],[-75.51626,2.51503],[-75.51265,2.51451],[-75.51122,2.51031],[-75.50526,2.50929],[-75.50121,2.50505],[-75.50122,2.50192],[-75.4991,2.50047],[-75.49959,2.4983],[-75.50141,2.49769],[-75.49991,2.49718],[-75.50062,2.49594],[-75.49947,2.49292],[-75.49677,2.49072],[-75.49831,2.48952],[-75.49837,2.48692],[-75.49592,2.48427],[-75.49127,2.48258],[-75.48454,2.48232],[-75.47981,2.47951],[-75.47251,2.48009],[-75.47092,2.4785],[-75.46892,2.4785],[-75.46798,2.47662],[-75.46421,2.47792],[-75.46088,2.47724],[-75.45672,2.47897],[-75.45509,2.47686],[-75.45368,2.4777],[-75.44991,2.47624],[-75.44629,2.47198],[-75.44155,2.47262],[-75.43541,2.46864],[-75.43442,2.45919],[-75.42937,2.45293],[-75.42851,2.44962],[-75.42961,2.44558],[-75.43393,2.44171],[-75.43151,2.43034],[-75.43887,2.41657],[-75.43833,2.41363],[-75.43956,2.4075],[-75.442,2.40313],[-75.44158,2.39964],[-75.4456,2.39273],[-75.44508,2.38561],[-75.43991,2.37891],[-75.43785,2.37301],[-75.43239,2.37072],[-75.43083,2.36841],[-75.42957,2.3645],[-75.42989,2.35945],[-75.42756,2.35498],[-75.4201,2.35201],[-75.4089,2.35187],[-75.40333,2.3497],[-75.40129,2.34569],[-75.40034,2.33788],[-75.39443,2.33306],[-75.39288,2.32597],[-75.38628,2.31458],[-75.39419,2.30391],[-75.39374,2.29908],[-75.39054,2.29371],[-75.39667,2.28768],[-75.39833,2.28235],[-75.40247,2.27652],[-75.40531,2.26778],[-75.40862,2.26463],[-75.40769,2.26119],[-75.41332,2.25067],[-75.41345,2.2491],[-75.41137,2.24836],[-75.41041,2.24565],[-75.41853,2.2384],[-75.43346,2.23241],[-75.43631,2.22885],[-75.43966,2.22071],[-75.44024,2.2135],[-75.43583,2.20104],[-75.43363,2.19886],[-75.4275,2.19736],[-75.42628,2.19504],[-75.42627,2.18813],[-75.42777,2.18641],[-75.42786,2.17951],[-75.43523,2.17238],[-75.43592,2.16746],[-75.4391,2.16317],[-75.43948,2.15936],[-75.4421,2.15383],[-75.44098,2.15106],[-75.44236,2.14702],[-75.44513,2.14422],[-75.45295,2.1459],[-75.46834,2.14205],[-75.47632,2.13548],[-75.48292,2.1364],[-75.48663,2.13524],[-75.4921,2.13093],[-75.4933,2.12774],[-75.50137,2.12299],[-75.51488,2.12343],[-75.51825,2.12184],[-75.52625,2.1229],[-75.53498,2.11766],[-75.5358,2.10892],[-75.54065,2.10392],[-75.5418,2.09764],[-75.54142,2.08889],[-75.54461,2.08402],[-75.55126,2.08299],[-75.55414,2.08033],[-75.55565,2.07607],[-75.55541,2.06925],[-75.55786,2.06535],[-75.56208,2.06338],[-75.56498,2.05996],[-75.57162,2.04974],[-75.56983,2.04138],[-75.57951,2.03768],[-75.58222,2.03471],[-75.58436,2.03117],[-75.58384,2.02716],[-75.58815,2.02418],[-75.5895,2.0217],[-75.58932,2.01644],[-75.58782,2.01296]]]}},{"type":"Feature","properties":{"zona":"Norte","color":"#4A9EE8"},"geometry":{"type":"Polygon","coordinates":[[[-75.42916,2.45252],[-75.43442,2.45919],[-75.43541,2.46864],[-75.43892,2.4715],[-75.44155,2.47262],[-75.44629,2.47198],[-75.44991,2.47624],[-75.45368,2.4777],[-75.45509,2.47686],[-75.45672,2.47897],[-75.46088,2.47724],[-75.46421,2.47792],[-75.46798,2.47662],[-75.46892,2.4785],[-75.47092,2.4785],[-75.47251,2.48009],[-75.47981,2.47951],[-75.48454,2.48232],[-75.49127,2.48258],[-75.49592,2.48427],[-75.49837,2.48692],[-75.49831,2.48952],[-75.49677,2.49072],[-75.49947,2.49292],[-75.50062,2.49594],[-75.49991,2.49718],[-75.50141,2.49769],[-75.49959,2.4983],[-75.4991,2.50047],[-75.50122,2.50192],[-75.50121,2.50505],[-75.50526,2.50929],[-75.51122,2.51031],[-75.51265,2.51451],[-75.51626,2.51503],[-75.52383,2.51243],[-75.52706,2.51548],[-75.52839,2.51892],[-75.52626,2.5216],[-75.52638,2.52409],[-75.52925,2.52805],[-75.52929,2.53229],[-75.5278,2.53372],[-75.53616,2.53158],[-75.54484,2.51814],[-75.54554,2.50782],[-75.54273,2.50457],[-75.54284,2.49898],[-75.54431,2.49742],[-75.54638,2.49751],[-75.55432,2.50252],[-75.55781,2.49475],[-75.56225,2.49216],[-75.56409,2.48759],[-75.56672,2.48634],[-75.56866,2.48801],[-75.58433,2.54905],[-75.58974,2.54198],[-75.59422,2.53979],[-75.59747,2.53999],[-75.60021,2.53583],[-75.60229,2.53561],[-75.60364,2.53383],[-75.61063,2.53701],[-75.61336,2.53651],[-75.61385,2.53837],[-75.61559,2.53899],[-75.62214,2.53833],[-75.62272,2.5372],[-75.62653,2.53644],[-75.62847,2.53916],[-75.62977,2.53757],[-75.63599,2.5401],[-75.63964,2.53927],[-75.64194,2.54227],[-75.64007,2.54663],[-75.64153,2.56048],[-75.64484,2.5598],[-75.64485,2.56686],[-75.64714,2.57076],[-75.65062,2.57256],[-75.64903,2.57454],[-75.65317,2.58723],[-75.65296,2.5898],[-75.65032,2.59325],[-75.64883,2.60207],[-75.6503,2.60903],[-75.64868,2.61179],[-75.64949,2.6189],[-75.64549,2.63506],[-75.6482,2.63682],[-75.65118,2.63502],[-75.65644,2.64508],[-75.66619,2.64211],[-75.67126,2.63946],[-75.67468,2.63582],[-75.68654,2.63085],[-75.69322,2.62559],[-75.69996,2.62268],[-75.70393,2.62816],[-75.72155,2.63249],[-75.72133,2.63565],[-75.72346,2.63798],[-75.72144,2.64222],[-75.72027,2.6551],[-75.72306,2.66353],[-75.73448,2.66728],[-75.73758,2.66946],[-75.74042,2.66829],[-75.74487,2.6737],[-75.74557,2.67216],[-75.74861,2.67203],[-75.75212,2.67644],[-75.76002,2.67696],[-75.76081,2.67898],[-75.76105,2.68026],[-75.75832,2.68045],[-75.75721,2.6823],[-75.75716,2.69568],[-75.75526,2.69848],[-75.75244,2.69743],[-75.75368,2.70099],[-75.75553,2.70202],[-75.75505,2.70553],[-75.75301,2.70804],[-75.75407,2.71283],[-75.75204,2.71375],[-75.75125,2.71721],[-75.74783,2.7192],[-75.7541,2.73622],[-75.7512,2.74249],[-75.76393,2.75239],[-75.76649,2.75221],[-75.77153,2.75481],[-75.77677,2.75414],[-75.77914,2.76072],[-75.78285,2.76306],[-75.78981,2.75844],[-75.7913,2.7617],[-75.79354,2.76154],[-75.79772,2.76511],[-75.80128,2.76547],[-75.80291,2.76858],[-75.80509,2.76745],[-75.80634,2.77152],[-75.8117,2.77874],[-75.81052,2.78698],[-75.80863,2.78916],[-75.80736,2.79728],[-75.80794,2.8016],[-75.80479,2.80812],[-75.80714,2.80944],[-75.80549,2.81873],[-75.80645,2.82089],[-75.81396,2.82177],[-75.81729,2.82543],[-75.81612,2.82706],[-75.81641,2.82953],[-75.82027,2.831],[-75.82206,2.83533],[-75.82543,2.83824],[-75.82727,2.83838],[-75.82775,2.83716],[-75.83718,2.84103],[-75.84128,2.84023],[-75.8456,2.84298],[-75.85451,2.84189],[-75.86908,2.83419],[-75.8741,2.83295],[-75.87918,2.83377],[-75.88243,2.83977],[-75.88539,2.84099],[-75.89136,2.85128],[-75.89372,2.85204],[-75.89524,2.85539],[-76.02899,2.94049],[-76.02873,2.95469],[-76.02506,2.96058],[-76.02611,2.96818],[-76.02917,2.97192],[-76.02901,2.97807],[-76.02633,2.9876],[-76.02025,2.99506],[-76.02167,2.99983],[-76.0208,3.00389],[-76.03374,3.00931],[-76.03586,3.01352],[-76.0413,3.01588],[-76.04182,3.01829],[-76.03916,3.02492],[-76.04015,3.02882],[-76.04461,3.03245],[-76.0449,3.04312],[-76.04694,3.04389],[-76.05236,3.04236],[-76.05591,3.04417],[-76.05816,3.0422],[-76.06169,3.04652],[-76.06724,3.04588],[-76.07298,3.04959],[-76.07289,3.05705],[-76.0707,3.05926],[-76.07023,3.06693],[-76.07322,3.0726],[-76.07318,3.07727],[-76.07917,3.08381],[-76.08227,3.09044],[-76.08763,3.0918],[-76.09239,3.09692],[-76.09746,3.09758],[-76.10298,3.09612],[-76.10541,3.10056],[-76.10574,3.10678],[-76.10264,3.10933],[-76.09712,3.1121],[-76.09187,3.11141],[-76.09,3.11406],[-76.08481,3.11306],[-76.08316,3.1171],[-76.078,3.11763],[-76.07372,3.12249],[-76.07367,3.12638],[-76.07654,3.1332],[-76.07417,3.13541],[-76.07268,3.14028],[-76.0762,3.14533],[-76.07795,3.15082],[-76.08442,3.15276],[-76.08612,3.15506],[-76.07786,3.16467],[-76.08303,3.17249],[-76.09086,3.17511],[-76.09215,3.17678],[-76.091,3.18521],[-76.09247,3.18748],[-76.09027,3.19277],[-76.09144,3.19848],[-76.08486,3.19265],[-76.08351,3.19004],[-76.07974,3.18797],[-76.0788,3.18264],[-76.0749,3.17811],[-76.05775,3.16979],[-76.05219,3.17024],[-76.03908,3.175],[-76.03363,3.17508],[-76.02509,3.1692],[-76.02073,3.16981],[-76.0086,3.17605],[-76.00753,3.17533],[-76.00681,3.1767],[-75.99956,3.17864],[-75.99714,3.18148],[-75.98755,3.18443],[-75.98481,3.18389],[-75.98206,3.18555],[-75.96623,3.18315],[-75.96223,3.1841],[-75.95616,3.183],[-75.95195,3.1802],[-75.94691,3.18408],[-75.94257,3.18359],[-75.92618,3.192],[-75.91443,3.19404],[-75.9118,3.1976],[-75.91177,3.19981],[-75.90623,3.20379],[-75.90556,3.20599],[-75.89779,3.2087],[-75.89071,3.21934],[-75.88698,3.22069],[-75.88283,3.21926],[-75.88218,3.22276],[-75.87851,3.22244],[-75.87817,3.22865],[-75.87526,3.23194],[-75.8752,3.23689],[-75.87343,3.23742],[-75.87297,3.23388],[-75.86865,3.23194],[-75.86549,3.23525],[-75.86298,3.23556],[-75.85918,3.2408],[-75.85569,3.24151],[-75.85132,3.24826],[-75.84993,3.24796],[-75.84159,3.25251],[-75.82892,3.26818],[-75.82495,3.26972],[-75.8209,3.27391],[-75.81826,3.27353],[-75.8185,3.28244],[-75.81202,3.28811],[-75.80414,3.28775],[-75.80028,3.29162],[-75.79788,3.29058],[-75.79563,3.29194],[-75.79072,3.30175],[-75.78687,3.30434],[-75.78649,3.30968],[-75.77562,3.31305],[-75.77223,3.31017],[-75.76576,3.30984],[-75.76133,3.31402],[-75.76025,3.31772],[-75.75821,3.31675],[-75.75667,3.31798],[-75.75098,3.31509],[-75.74883,3.31802],[-75.74631,3.31709],[-75.74583,3.31871],[-75.74345,3.31838],[-75.73592,3.32579],[-75.73352,3.32554],[-75.73157,3.32726],[-75.72942,3.33072],[-75.73391,3.3366],[-75.72756,3.34293],[-75.72688,3.34784],[-75.72399,3.34898],[-75.72383,3.35471],[-75.72222,3.35789],[-75.72297,3.36117],[-75.72042,3.36316],[-75.71929,3.37007],[-75.7165,3.3713],[-75.71605,3.37466],[-75.71723,3.37651],[-75.70875,3.3842],[-75.70785,3.39401],[-75.7058,3.39849],[-75.70347,3.40016],[-75.70508,3.40539],[-75.70204,3.4062],[-75.70183,3.40991],[-75.69819,3.4145],[-75.69657,3.41914],[-75.69713,3.42172],[-75.68864,3.42964],[-75.68804,3.43617],[-75.68512,3.43937],[-75.68551,3.44359],[-75.6816,3.44909],[-75.67924,3.44863],[-75.67672,3.4524],[-75.67362,3.45282],[-75.67283,3.45519],[-75.67403,3.45677],[-75.67421,3.46262],[-75.67053,3.46348],[-75.66825,3.46635],[-75.66596,3.46549],[-75.66332,3.46774],[-75.66094,3.46519],[-75.65289,3.46605],[-75.64927,3.46344],[-75.64636,3.46344],[-75.63973,3.45986],[-75.63713,3.45653],[-75.63114,3.46],[-75.62516,3.45886],[-75.62156,3.45634],[-75.61491,3.4573],[-75.60834,3.45471],[-75.60387,3.45631],[-75.60224,3.4525],[-75.5995,3.45179],[-75.59091,3.45433],[-75.58256,3.45254],[-75.57904,3.45329],[-75.57797,3.45706],[-75.58043,3.45928],[-75.58054,3.46115],[-75.57916,3.46361],[-75.57551,3.46544],[-75.57199,3.4642],[-75.56917,3.4665],[-75.56169,3.46273],[-75.55341,3.4628],[-75.54912,3.46407],[-75.54387,3.46329],[-75.53112,3.46898],[-75.52717,3.46902],[-75.52075,3.47518],[-75.51692,3.47439],[-75.50488,3.47762],[-75.503,3.47603],[-75.49546,3.47792],[-75.48569,3.48461],[-75.48353,3.48411],[-75.48035,3.48594],[-75.47254,3.48534],[-75.47063,3.48255],[-75.46601,3.4813],[-75.46279,3.47698],[-75.46031,3.47879],[-75.46015,3.47334],[-75.45694,3.47451],[-75.45563,3.47622],[-75.45481,3.48312],[-75.4461,3.49291],[-75.44273,3.4949],[-75.4306,3.51116],[-75.43004,3.51848],[-75.42563,3.53006],[-75.41689,3.53647],[-75.4174,3.54224],[-75.42041,3.54732],[-75.42125,3.55783],[-75.41594,3.56335],[-75.41283,3.57256],[-75.40517,3.58039],[-75.40375,3.58398],[-75.39979,3.58745],[-75.39815,3.59155],[-75.39524,3.59418],[-75.38822,3.59599],[-75.38423,3.60043],[-75.38067,3.60228],[-75.37622,3.60226],[-75.37495,3.60437],[-75.37178,3.60555],[-75.37042,3.60779],[-75.36547,3.61099],[-75.36672,3.61555],[-75.36538,3.61874],[-75.36592,3.62759],[-75.36247,3.63665],[-75.35847,3.63923],[-75.35368,3.63956],[-75.35399,3.64323],[-75.35803,3.64433],[-75.35887,3.64783],[-75.35442,3.65097],[-75.35502,3.65878],[-75.35256,3.66185],[-75.34044,3.65937],[-75.33024,3.66247],[-75.32849,3.6651],[-75.32343,3.66375],[-75.32515,3.65844],[-75.32694,3.65774],[-75.3277,3.65335],[-75.32927,3.65223],[-75.32943,3.64924],[-75.33118,3.64813],[-75.32968,3.64622],[-75.3285,3.64697],[-75.32439,3.64168],[-75.32321,3.63603],[-75.32405,3.6307],[-75.32057,3.62815],[-75.31827,3.62106],[-75.31467,3.6182],[-75.31466,3.615],[-75.3102,3.61424],[-75.30986,3.61135],[-75.30209,3.6112],[-75.29991,3.61241],[-75.29914,3.6106],[-75.29205,3.61032],[-75.28789,3.60572],[-75.2872,3.60128],[-75.28441,3.60257],[-75.28,3.60088],[-75.27872,3.60209],[-75.27784,3.60088],[-75.27715,3.60218],[-75.27493,3.60147],[-75.27105,3.60492],[-75.27138,3.60172],[-75.26847,3.60102],[-75.26647,3.59521],[-75.26325,3.59211],[-75.26011,3.59149],[-75.25177,3.59642],[-75.25151,3.60116],[-75.24804,3.60583],[-75.24873,3.60694],[-75.24693,3.60716],[-75.24436,3.61052],[-75.24419,3.60746],[-75.23713,3.60057],[-75.23875,3.59608],[-75.24056,3.59589],[-75.24136,3.59199],[-75.24865,3.59013],[-75.24884,3.58348],[-75.24667,3.58285],[-75.24581,3.58017],[-75.24804,3.57554],[-75.24686,3.56888],[-75.24909,3.5669],[-75.24945,3.56466],[-75.25253,3.56785],[-75.25923,3.57084],[-75.26087,3.57478],[-75.26506,3.57672],[-75.27134,3.56997],[-75.274,3.57079],[-75.27583,3.56865],[-75.28129,3.56905],[-75.28126,3.57027],[-75.28381,3.57179],[-75.28706,3.56755],[-75.28718,3.56551],[-75.28872,3.56509],[-75.28878,3.56043],[-75.2903,3.56049],[-75.28891,3.55807],[-75.29043,3.55805],[-75.2907,3.55544],[-75.28876,3.55226],[-75.28973,3.55105],[-75.29228,3.55145],[-75.29239,3.54933],[-75.28864,3.54731],[-75.29003,3.54442],[-75.28798,3.54404],[-75.28822,3.54172],[-75.28659,3.54233],[-75.2855,3.54046],[-75.28634,3.53896],[-75.28181,3.53467],[-75.27937,3.53407],[-75.27924,3.53182],[-75.27507,3.53083],[-75.27368,3.5262],[-75.27132,3.52373],[-75.26942,3.52382],[-75.26997,3.5227],[-75.26673,3.5144],[-75.26378,3.51216],[-75.26091,3.51233],[-75.25809,3.51082],[-75.25548,3.5068],[-75.25521,3.505],[-75.25706,3.50289],[-75.25592,3.50203],[-75.25657,3.50026],[-75.25871,3.49906],[-75.25642,3.49273],[-75.25869,3.49027],[-75.26118,3.49241],[-75.26768,3.48617],[-75.26657,3.48161],[-75.26442,3.47968],[-75.26531,3.47794],[-75.27286,3.47963],[-75.27783,3.47723],[-75.2794,3.47153],[-75.29143,3.46026],[-75.29301,3.45715],[-75.30245,3.45055],[-75.30181,3.44849],[-75.30052,3.4492],[-75.29789,3.44667],[-75.29879,3.44386],[-75.29708,3.44059],[-75.2899,3.44169],[-75.28957,3.43964],[-75.28616,3.43685],[-75.28378,3.427],[-75.28425,3.42467],[-75.28157,3.42609],[-75.2756,3.41859],[-75.27558,3.41631],[-75.27793,3.41301],[-75.27642,3.41124],[-75.27609,3.40768],[-75.27761,3.40266],[-75.27622,3.39833],[-75.27201,3.39619],[-75.27278,3.39237],[-75.27125,3.3891],[-75.27252,3.38731],[-75.27212,3.38544],[-75.27063,3.38609],[-75.26875,3.38475],[-75.2667,3.37874],[-75.26082,3.37747],[-75.25786,3.37547],[-75.25754,3.37433],[-75.2602,3.37232],[-75.25749,3.37193],[-75.25267,3.36572],[-75.25052,3.36727],[-75.25067,3.37513],[-75.24767,3.37665],[-75.2479,3.37935],[-75.24525,3.38188],[-75.24508,3.38905],[-75.24662,3.39137],[-75.246,3.39512],[-75.24342,3.39654],[-75.2413,3.40046],[-75.24107,3.40457],[-75.22727,3.41577],[-75.22246,3.41223],[-75.2183,3.41312],[-75.21148,3.41244],[-75.21222,3.40891],[-75.21113,3.40765],[-75.20753,3.41015],[-75.20044,3.40943],[-75.19966,3.40624],[-75.20228,3.39656],[-75.20032,3.39549],[-75.19988,3.38455],[-75.18396,3.37961],[-75.17805,3.38031],[-75.1749,3.37731],[-75.17277,3.37833],[-75.17226,3.3824],[-75.17499,3.39861],[-75.17416,3.40869],[-75.16955,3.41352],[-75.15773,3.41453],[-75.1516,3.41868],[-75.14927,3.42137],[-75.15273,3.42435],[-75.15365,3.42733],[-75.1516,3.43289],[-75.14743,3.43582],[-75.14362,3.43542],[-75.13167,3.43029],[-75.12392,3.4308],[-75.12145,3.43313],[-75.06464,3.43116],[-75.05932,3.43278],[-75.05489,3.43117],[-75.04603,3.43153],[-75.04203,3.42831],[-75.03696,3.42953],[-75.0335,3.42788],[-75.02751,3.43408],[-75.02674,3.44006],[-75.02426,3.44199],[-75.02379,3.44512],[-75.01959,3.45049],[-75.0132,3.45506],[-75.00496,3.45823],[-75.00682,3.46469],[-75.00609,3.46887],[-75.00225,3.47111],[-74.99947,3.47055],[-74.99285,3.4743],[-74.99279,3.47809],[-74.99576,3.47891],[-74.99703,3.48102],[-74.99524,3.48953],[-74.99303,3.49088],[-74.99241,3.49427],[-74.99722,3.49648],[-74.99863,3.4954],[-75.00386,3.49953],[-74.99565,3.51242],[-74.9962,3.5101],[-74.99226,3.50474],[-74.97362,3.50134],[-74.97362,3.49882],[-74.97202,3.49815],[-74.97267,3.49625],[-74.97042,3.49451],[-74.96746,3.48802],[-74.96449,3.488],[-74.96221,3.4863],[-74.962,3.48406],[-74.95289,3.48002],[-74.95086,3.47684],[-74.94651,3.47758],[-74.94421,3.47634],[-74.94215,3.47847],[-74.93605,3.48035],[-74.93617,3.48503],[-74.9326,3.48775],[-74.9337,3.48992],[-74.93279,3.49414],[-74.92992,3.49643],[-74.92974,3.49855],[-74.92682,3.49667],[-74.92515,3.49377],[-74.91734,3.49423],[-74.9171,3.49209],[-74.91158,3.49321],[-74.90884,3.49177],[-74.90602,3.49383],[-74.90235,3.48987],[-74.89874,3.49277],[-74.89524,3.49343],[-74.89525,3.49574],[-74.89252,3.49971],[-74.88796,3.50258],[-74.8841,3.50083],[-74.88208,3.5049],[-74.87961,3.5066],[-74.87155,3.50675],[-74.86873,3.50866],[-74.86594,3.50753],[-74.85912,3.51162],[-74.852,3.51152],[-74.84559,3.50937],[-74.83906,3.50181],[-74.83024,3.49615],[-74.82766,3.48888],[-74.83711,3.47476],[-74.84852,3.46183],[-74.85155,3.45439],[-74.83912,3.44537],[-74.83211,3.43557],[-74.82807,3.43373],[-74.82659,3.43128],[-74.8277,3.42894],[-74.82423,3.4249],[-74.82107,3.41482],[-74.81441,3.4132],[-74.81102,3.41065],[-74.81029,3.41216],[-74.80578,3.41287],[-74.80537,3.41575],[-74.79799,3.41818],[-74.79138,3.42362],[-74.78495,3.42515],[-74.77563,3.43633],[-74.77231,3.43643],[-74.76949,3.43933],[-74.76451,3.44088],[-74.76423,3.44754],[-74.76155,3.44981],[-74.76171,3.45461],[-74.76524,3.45631],[-74.76447,3.45938],[-74.76597,3.46145],[-74.77174,3.46404],[-74.77533,3.4696],[-74.77543,3.47167],[-74.77724,3.47284],[-74.77731,3.47479],[-74.77882,3.47512],[-74.78083,3.47901],[-74.77973,3.48447],[-74.7829,3.49285],[-74.77906,3.5069],[-74.78072,3.50971],[-74.77719,3.51294],[-74.77638,3.51726],[-74.77492,3.5187],[-74.77476,3.52415],[-74.76924,3.53012],[-74.75587,3.53187],[-74.75316,3.5306],[-74.75163,3.52796],[-74.74758,3.52773],[-74.74628,3.53013],[-74.74409,3.53057],[-74.73855,3.53607],[-74.73361,3.54445],[-74.73308,3.54753],[-74.72863,3.55158],[-74.72665,3.56201],[-74.73386,3.56636],[-74.73287,3.57056],[-74.73415,3.57157],[-74.73524,3.57929],[-74.73624,3.58166],[-74.73849,3.58092],[-74.73951,3.58182],[-74.73835,3.59076],[-74.72957,3.59751],[-74.72571,3.60338],[-74.72508,3.6089],[-74.72022,3.61411],[-74.71707,3.61504],[-74.71219,3.61065],[-74.70098,3.61572],[-74.69939,3.61844],[-74.70056,3.61919],[-74.69873,3.62656],[-74.69837,3.63266],[-74.69938,3.63506],[-74.69774,3.63768],[-74.69739,3.64163],[-74.69432,3.64166],[-74.69094,3.64503],[-74.68923,3.64767],[-74.68906,3.65217],[-74.67795,3.66375],[-74.67538,3.67172],[-74.67235,3.67112],[-74.66787,3.67373],[-74.66385,3.67311],[-74.66089,3.67605],[-74.66115,3.67836],[-74.65809,3.68162],[-74.6553,3.68113],[-74.6483,3.68386],[-74.64727,3.68309],[-74.64502,3.68668],[-74.64074,3.68766],[-74.64056,3.68994],[-74.63774,3.68997],[-74.63095,3.69637],[-74.62487,3.69874],[-74.61476,3.71248],[-74.60923,3.71539],[-74.60498,3.72063],[-74.59797,3.72238],[-74.59078,3.72946],[-74.58717,3.73425],[-74.58693,3.73817],[-74.58524,3.74072],[-74.56688,3.75681],[-74.56164,3.76271],[-74.56108,3.7669],[-74.5576,3.76707],[-74.55764,3.77326],[-74.55424,3.77654],[-74.55307,3.78459],[-74.54642,3.79325],[-74.54674,3.80272],[-74.54488,3.80724],[-74.54174,3.81335],[-74.53611,3.81667],[-74.53454,3.82102],[-74.53676,3.82431],[-74.53683,3.82728],[-74.53477,3.82976],[-74.53452,3.83409],[-74.53132,3.83647],[-74.53107,3.83799],[-74.53188,3.84102],[-74.53474,3.84321],[-74.52219,3.83719],[-74.51214,3.83432],[-74.50923,3.83202],[-74.50709,3.82449],[-74.4902,3.81761],[-74.48352,3.81847],[-74.47815,3.82429],[-74.475,3.8242],[-74.46245,3.81915],[-74.45122,3.81965],[-74.44694,3.80979],[-74.4453,3.8008],[-74.45042,3.79459],[-74.45008,3.79129],[-74.45819,3.77263],[-74.45958,3.76462],[-74.45783,3.75404],[-74.46236,3.74578],[-74.46345,3.7409],[-74.46031,3.73642],[-74.45265,3.7305],[-74.44212,3.73023],[-74.43286,3.73458],[-74.42469,3.74142],[-74.41779,3.74196],[-74.41593,3.74083],[-74.4167,3.73173],[-74.41425,3.72905],[-74.41331,3.72376],[-74.41841,3.72186],[-74.42448,3.7084],[-74.43593,3.70881],[-74.43899,3.70726],[-74.43839,3.69878],[-74.44375,3.69314],[-74.45185,3.6914],[-74.46105,3.6672],[-74.4645,3.66419],[-74.47447,3.66318],[-74.47794,3.66431],[-74.47965,3.66795],[-74.48243,3.66754],[-74.48514,3.66519],[-74.48767,3.65926],[-74.49156,3.65418],[-74.49585,3.65012],[-74.50286,3.64628],[-74.50796,3.63762],[-74.5126,3.62126],[-74.5153,3.60808],[-74.5142,3.60093],[-74.52167,3.59879],[-74.52472,3.5952],[-74.52758,3.58841],[-74.52791,3.58385],[-74.5241,3.57974],[-74.53739,3.55979],[-74.54931,3.5479],[-74.56648,3.52241],[-74.56862,3.52186],[-74.57011,3.52465],[-74.57193,3.52529],[-74.57676,3.52332],[-74.58079,3.52357],[-74.58244,3.52881],[-74.58425,3.52977],[-74.59067,3.52733],[-74.5929,3.52106],[-74.60312,3.51401],[-74.60376,3.50758],[-74.60707,3.50166],[-74.61098,3.49812],[-74.61507,3.49086],[-74.62082,3.48569],[-74.62122,3.48303],[-74.62476,3.47987],[-74.63053,3.4713],[-74.63053,3.46851],[-74.61551,3.45954],[-74.61191,3.44597],[-74.61582,3.43387],[-74.61787,3.43182],[-74.6175,3.4294],[-74.61507,3.42605],[-74.61358,3.41916],[-74.60567,3.41414],[-74.60912,3.40612],[-74.61787,3.3996],[-74.62398,3.39305],[-74.62552,3.38525],[-74.62214,3.37828],[-74.62388,3.37626],[-74.63382,3.37305],[-74.63984,3.36837],[-74.63729,3.36369],[-74.63153,3.35755],[-74.63126,3.35397],[-74.62724,3.35095],[-74.62705,3.34517],[-74.61787,3.33051],[-74.61656,3.32102],[-74.62606,3.29979],[-74.62271,3.29588],[-74.61953,3.29458],[-74.6173,3.29177],[-74.61633,3.2878],[-74.62641,3.28459],[-74.63553,3.27848],[-74.63669,3.27276],[-74.64183,3.26937],[-74.64329,3.26452],[-74.64756,3.26161],[-74.64989,3.25744],[-74.6496,3.25575],[-74.65658,3.24759],[-74.65784,3.24027],[-74.66637,3.23009],[-74.66705,3.22068],[-74.6687,3.21777],[-74.66657,3.21186],[-74.66686,3.2073],[-74.67326,3.18635],[-74.68412,3.18237],[-74.69664,3.17314],[-74.70711,3.17015],[-74.71302,3.16996],[-74.71907,3.16073],[-74.72266,3.15756],[-74.72224,3.15356],[-74.72569,3.1479],[-74.72473,3.1421],[-74.72721,3.13796],[-74.73673,3.13272],[-74.74887,3.12251],[-74.74804,3.11865],[-74.74942,3.11382],[-74.74901,3.11023],[-74.75094,3.10816],[-74.75729,3.10582],[-74.76433,3.10513],[-74.76598,3.10237],[-74.76557,3.09726],[-74.76819,3.09395],[-74.77426,3.09022],[-74.77991,3.08195],[-74.78392,3.07988],[-74.78585,3.07643],[-74.79026,3.07367],[-74.78778,3.06042],[-74.79258,3.05591],[-74.80007,3.05676],[-74.80412,3.0539],[-74.81042,3.05468],[-74.81596,3.05303],[-74.82005,3.04774],[-74.81916,3.04352],[-74.82038,3.03989],[-74.82593,3.03765],[-74.82798,3.03251],[-74.83166,3.02869],[-74.83187,3.02554],[-74.83483,3.02275],[-74.84311,3.00964],[-74.8496,2.99471],[-74.85231,2.99307],[-74.85721,2.99482],[-74.86293,2.99358],[-74.86351,2.99102],[-74.86808,2.985],[-74.8659,2.9811],[-74.86905,2.97363],[-74.87415,2.96949],[-74.88285,2.97156],[-74.88575,2.96517],[-74.88907,2.96462],[-74.8942,2.96685],[-74.90101,2.96274],[-74.9049,2.95686],[-74.90246,2.95169],[-74.90421,2.94605],[-74.90849,2.93962],[-74.90881,2.93581],[-74.91103,2.9316],[-74.9157,2.92827],[-74.9169,2.92502],[-74.92006,2.92199],[-74.92562,2.91816],[-74.92714,2.91361],[-74.93551,2.90891],[-74.93153,2.90986],[-74.92833,2.90625],[-74.9225,2.90542],[-74.92042,2.90333],[-74.91792,2.89167],[-74.91063,2.88354],[-74.9075,2.88833],[-74.90583,2.88833],[-74.905,2.89167],[-74.9,2.8925],[-74.89875,2.89667],[-74.89542,2.9],[-74.89417,2.905],[-74.88,2.91208],[-74.87833,2.915],[-74.87125,2.91667],[-74.85917,2.915],[-74.85667,2.91583],[-74.85167,2.91333],[-74.84541,2.91667],[-74.83688,2.90854],[-74.83292,2.91083],[-74.8325,2.915],[-74.82917,2.91958],[-74.82417,2.92292],[-74.8175,2.92375],[-74.815,2.92833],[-74.80979,2.92979],[-74.80917,2.93167],[-74.80583,2.93292],[-74.80417,2.93583],[-74.8,2.93833],[-74.78958,2.9275],[-74.78958,2.925],[-74.79417,2.915],[-74.79042,2.91083],[-74.79,2.9075],[-74.78083,2.90458],[-74.78167,2.90208],[-74.77834,2.89125],[-74.77875,2.88583],[-74.77458,2.87917],[-74.77084,2.87667],[-74.76937,2.87312],[-74.76167,2.8725],[-74.755,2.8775],[-74.74958,2.87583],[-74.74083,2.87833],[-74.74083,2.88],[-74.73625,2.88083],[-74.72583,2.8775],[-74.725,2.88333],[-74.7125,2.88708],[-74.70834,2.89042],[-74.70167,2.89167],[-74.69833,2.89083],[-74.69209,2.89333],[-74.67333,2.88875],[-74.67292,2.87667],[-74.66666,2.87042],[-74.66813,2.86063],[-74.66458,2.85667],[-74.665,2.85333],[-74.66167,2.84208],[-74.66209,2.84],[-74.66854,2.83604],[-74.67167,2.83167],[-74.66583,2.82375],[-74.6675,2.81833],[-74.665,2.81292],[-74.66666,2.805],[-74.665,2.805],[-74.665,2.80333],[-74.65667,2.80375],[-74.6575,2.80167],[-74.65375,2.78417],[-74.64875,2.77917],[-74.64667,2.7725],[-74.64458,2.77167],[-74.64333,2.76833],[-74.64417,2.76667],[-74.6425,2.75958],[-74.64333,2.75583],[-74.63416,2.755],[-74.62708,2.75583],[-74.6175,2.75375],[-74.61958,2.74917],[-74.62375,2.745],[-74.62458,2.74167],[-74.62959,2.73667],[-74.62959,2.73167],[-74.62791,2.72917],[-74.62708,2.72167],[-74.63042,2.71917],[-74.63208,2.71333],[-74.635,2.71208],[-74.63792,2.70833],[-74.6375,2.70083],[-74.62833,2.69917],[-74.62334,2.7],[-74.61584,2.69625],[-74.61417,2.69458],[-74.61667,2.6875],[-74.61584,2.68333],[-74.60667,2.68292],[-74.59666,2.67708],[-74.595,2.67333],[-74.59,2.67333],[-74.58583,2.66542],[-74.59292,2.65667],[-74.59708,2.645],[-74.59792,2.63833],[-74.6,2.63625],[-74.60583,2.63667],[-74.60625,2.635],[-74.60917,2.63333],[-74.61208,2.62333],[-74.61333,2.6225],[-74.615,2.625],[-74.62125,2.62667],[-74.62417,2.62583],[-74.625,2.61833],[-74.63333,2.61458],[-74.63583,2.61125],[-74.64167,2.60875],[-74.64792,2.60167],[-74.64917,2.5975],[-74.64584,2.5875],[-74.65417,2.58042],[-74.66,2.57875],[-74.66917,2.57167],[-74.67,2.56833],[-74.67375,2.56583],[-74.67833,2.55958],[-74.68166,2.55833],[-74.68125,2.55333],[-74.67875,2.55],[-74.67792,2.545],[-74.67583,2.54417],[-74.675,2.53958],[-74.67917,2.53292],[-74.67667,2.525],[-74.6775,2.52375],[-74.67333,2.51958],[-74.65708,2.5125],[-74.65459,2.50417],[-74.65125,2.50167],[-74.6475,2.49375],[-74.64917,2.49083],[-74.65459,2.49167],[-74.66084,2.49083],[-74.66084,2.48917],[-74.66292,2.48833],[-74.66209,2.47167],[-74.66875,2.45167],[-74.67333,2.44583],[-74.67167,2.43917],[-74.6725,2.43667],[-74.67083,2.43375],[-74.67292,2.425],[-74.67709,2.42417],[-74.685,2.425],[-74.69,2.42292],[-74.69292,2.42],[-74.69875,2.40917],[-74.70292,2.395],[-74.70458,2.39333],[-74.70541,2.3875],[-74.70667,2.38625],[-74.70625,2.38167],[-74.70875,2.37583],[-74.71542,2.3675],[-74.71917,2.36],[-74.72708,2.35917],[-74.73375,2.34667],[-74.73708,2.335],[-74.73959,2.33083],[-74.74125,2.31917],[-74.7425,2.3175],[-74.74084,2.31292],[-74.74208,2.3075],[-74.74416,2.305],[-74.74333,2.30333],[-74.74458,2.29417],[-74.74917,2.27833],[-74.75083,2.27792],[-74.74834,2.27417],[-74.74125,2.27167],[-74.735,2.27542],[-74.73583,2.2775],[-74.73417,2.2775],[-74.73417,2.28083],[-74.73,2.28],[-74.72667,2.27333],[-74.7275,2.27083],[-74.72916,2.27083],[-74.72875,2.26917],[-74.72166,2.265],[-74.72,2.26583],[-74.71584,2.26333],[-74.71416,2.26375],[-74.71542,2.27083],[-74.71125,2.2775],[-74.70917,2.28375],[-74.69791,2.285],[-74.69334,2.28417],[-74.69458,2.28],[-74.70042,2.27667],[-74.70125,2.27167],[-74.69667,2.27],[-74.69292,2.27083],[-74.69167,2.26792],[-74.68417,2.26417],[-74.68417,2.26],[-74.6775,2.25625],[-74.67167,2.25583],[-74.67167,2.25417],[-74.66583,2.25167],[-74.65916,2.25208],[-74.65417,2.24792],[-74.65459,2.2425],[-74.65,2.24],[-74.65083,2.2275],[-74.66,2.22667],[-74.66333,2.215],[-74.6675,2.21458],[-74.665,2.21125],[-74.66292,2.21167],[-74.65292,2.2075],[-74.64417,2.21083],[-74.64333,2.2025],[-74.635,2.19875],[-74.63416,2.19542],[-74.63,2.195],[-74.62917,2.19292],[-74.62708,2.1925],[-74.625,2.1925],[-74.62417,2.19583],[-74.61583,2.19958],[-74.615,2.2025],[-74.61125,2.20417],[-74.61083,2.20833],[-74.6075,2.20792],[-74.60333,2.20417],[-74.5975,2.205],[-74.5975,2.20167],[-74.59167,2.20167],[-74.58958,2.19833],[-74.58916,2.1925],[-74.59333,2.19],[-74.5925,2.1875],[-74.59,2.18625],[-74.59125,2.18333],[-74.59167,2.17292],[-74.58916,2.17167],[-74.58916,2.17],[-74.59125,2.16917],[-74.5925,2.16375],[-74.59666,2.16333],[-74.59792,2.16583],[-74.60167,2.16375],[-74.6025,2.16167],[-74.60416,2.16167],[-74.60333,2.15958],[-74.60416,2.15667],[-74.60208,2.15583],[-74.59792,2.1475],[-74.59583,2.14667],[-74.59583,2.14333],[-74.59333,2.14333],[-74.59417,2.13917],[-74.59333,2.13458],[-74.58667,2.13292],[-74.58334,2.12833],[-74.58125,2.1275],[-74.58,2.12458],[-74.57208,2.12583],[-74.56834,2.12542],[-74.56625,2.12333],[-74.56333,2.12542],[-74.55791,2.12667],[-74.55292,2.12417],[-74.55083,2.12833],[-74.55167,2.13042],[-74.55083,2.13167],[-74.54625,2.12917],[-74.54333,2.11792],[-74.54417,2.11708],[-74.53875,2.11],[-74.53584,2.11208],[-74.53,2.11292],[-74.53083,2.11375],[-74.52917,2.11542],[-74.52583,2.11708],[-74.52,2.12292],[-74.5175,2.12292],[-74.515,2.12083],[-74.51167,2.12167],[-74.51125,2.1275],[-74.50875,2.1325],[-74.50542,2.13083],[-74.50208,2.13333],[-74.49917,2.1325],[-74.49667,2.13625],[-74.49084,2.13667],[-74.49,2.13958],[-74.49167,2.14292],[-74.49084,2.145],[-74.49167,2.1475],[-74.48542,2.14917],[-74.48333,2.14667],[-74.48417,2.14333],[-74.48209,2.13167],[-74.48083,2.13042],[-74.48167,2.12958],[-74.47875,2.1275],[-74.4775,2.12083],[-74.47916,2.11417],[-74.48333,2.11417],[-74.48417,2.11],[-74.48083,2.10625],[-74.48167,2.10417],[-74.48083,2.10208],[-74.47875,2.1025],[-74.47417,2.1],[-74.47417,2.09833],[-74.46917,2.09708],[-74.46833,2.09417],[-74.46416,2.09333],[-74.46208,2.08917],[-74.46,2.09],[-74.45917,2.09208],[-74.45084,2.095],[-74.44833,2.09208],[-74.44625,2.09167],[-74.44417,2.09208],[-74.44292,2.09417],[-74.44,2.09125],[-74.43166,2.09083],[-74.43667,2.08167],[-74.42917,2.08292],[-74.42625,2.085],[-74.425,2.08083],[-74.4175,2.07833],[-74.4125,2.08],[-74.41042,2.07917],[-74.40667,2.08167],[-74.405,2.08083],[-74.40208,2.0825],[-74.40125,2.085],[-74.39792,2.08333],[-74.3925,2.08417],[-74.39208,2.07917],[-74.39083,2.08042],[-74.38417,2.08083],[-74.38006,2.07474],[-74.37552,2.07142],[-74.36647,2.0607],[-74.36194,2.05951],[-74.32383,2.06213],[-74.30502,2.05951],[-74.25285,2.05856],[-74.2419,2.05642],[-74.23618,2.05475],[-74.23142,2.04951],[-74.22927,2.04094],[-74.22808,2.0276],[-74.22332,2.01902],[-74.20379,1.99544],[-74.19783,1.99083],[-74.1975,1.9925],[-74.19417,1.9925],[-74.1925,1.9875],[-74.19083,1.9875],[-74.19,1.98542],[-74.18584,1.98417],[-74.18208,1.98583],[-74.175,1.9825],[-74.17292,1.98],[-74.16333,1.98333],[-74.16125,1.97917],[-74.15334,1.97958],[-74.15083,1.98583],[-74.14917,1.98583],[-74.14917,1.98833],[-74.15208,1.99],[-74.15334,1.99417],[-74.1525,1.9975],[-74.14958,1.9975],[-74.14417,1.99667],[-74.14333,1.99292],[-74.1325,1.99292],[-74.12959,1.99417],[-74.125,1.99292],[-74.12417,1.99125],[-74.125,1.98958],[-74.12334,1.98792],[-74.11333,1.98542],[-74.10792,1.98167],[-74.10709,1.975],[-74.105,1.9725],[-74.09333,1.9775],[-74.09042,1.975],[-74.08208,1.97917],[-74.07417,1.9775],[-74.06625,1.97917],[-74.06167,1.97458],[-74.05417,1.97167],[-74.04958,1.97333],[-74.045,1.97042],[-74.04062,1.96938],[-74.04,1.97083],[-73.65667,1.61773],[-73.66021,1.61268],[-73.65804,1.60886],[-73.65923,1.60346],[-73.66391,1.59526],[-73.66341,1.59246],[-73.66043,1.59126],[-73.65884,1.58795],[-73.65944,1.58065],[-73.65835,1.57635],[-73.6494,1.56855],[-73.64801,1.56485],[-73.64264,1.55804],[-73.64235,1.55654],[-73.64434,1.55374],[-73.64344,1.55164],[-73.64066,1.55014],[-73.63798,1.54564],[-73.63221,1.54193],[-73.63082,1.53943],[-73.62674,1.53913],[-73.62088,1.53233],[-73.61989,1.52903],[-73.61681,1.52873],[-73.61532,1.52703],[-73.61363,1.52373],[-73.61174,1.51232],[-73.60777,1.50572],[-73.60697,1.50172],[-73.60369,1.50102],[-73.59997,1.49828],[-73.59339,1.48993],[-73.58452,1.48696],[-73.58195,1.48293],[-73.58157,1.47506],[-73.57795,1.46872],[-73.56051,1.45385],[-73.55498,1.448],[-73.55298,1.44147],[-73.54726,1.43802],[-73.54631,1.43322],[-73.54717,1.42727],[-73.5445,1.42324],[-73.54545,1.41643],[-73.54812,1.41048],[-73.54765,1.40616],[-73.54365,1.40148],[-73.53795,1.39944],[-73.53719,1.39705],[-73.53807,1.39472],[-73.53559,1.39253],[-73.53503,1.38984],[-73.53279,1.38932],[-73.53136,1.39124],[-73.52982,1.38913],[-73.52117,1.39148],[-73.52097,1.38971],[-73.52294,1.38967],[-73.5215,1.38888],[-73.52284,1.38848],[-73.52211,1.3874],[-73.51762,1.38828],[-73.51766,1.38719],[-73.51317,1.38716],[-73.51287,1.38605],[-73.50983,1.387],[-73.51,1.38838],[-73.50791,1.38677],[-73.50853,1.38426],[-73.50451,1.38419],[-73.50685,1.3815],[-73.50449,1.38151],[-73.50627,1.37832],[-73.50477,1.37969],[-73.5036,1.37715],[-73.50217,1.3768],[-73.50435,1.37665],[-73.50393,1.37492],[-73.50233,1.37427],[-73.50327,1.37009],[-73.49832,1.36958],[-73.4969,1.37242],[-73.49591,1.37125],[-73.49382,1.37203],[-73.49431,1.36964],[-73.49226,1.3692],[-73.49244,1.36773],[-73.48944,1.36739],[-73.48858,1.36956],[-73.4896,1.37228],[-73.48608,1.37019],[-73.48703,1.36885],[-73.48326,1.37045],[-73.48217,1.36727],[-73.48331,1.3662],[-73.48477,1.36722],[-73.48467,1.36356],[-73.47974,1.36386],[-73.47946,1.36228],[-73.47374,1.36024],[-73.47533,1.3588],[-73.47211,1.35845],[-73.47339,1.35588],[-73.47253,1.35445],[-73.47451,1.35478],[-73.47473,1.35262],[-73.47268,1.35361],[-73.47219,1.35095],[-73.47002,1.35183],[-73.46876,1.34786],[-73.47065,1.34716],[-73.46898,1.34431],[-73.47117,1.34485],[-73.47122,1.34374],[-73.46826,1.34301],[-73.46667,1.34388],[-73.46662,1.34225],[-73.46877,1.3425],[-73.47005,1.34049],[-73.46393,1.33701],[-73.46536,1.33658],[-73.4662,1.33264],[-73.46208,1.33254],[-73.46121,1.32958],[-73.45838,1.32744],[-73.45915,1.32605],[-73.45743,1.32568],[-73.45735,1.32285],[-73.45949,1.32312],[-73.45953,1.32214],[-73.45516,1.32102],[-73.45781,1.32013],[-73.45762,1.31784],[-73.45888,1.3165],[-73.45638,1.31444],[-73.45961,1.31177],[-73.46135,1.31227],[-73.45798,1.30752],[-73.45611,1.30676],[-73.45629,1.30857],[-73.45488,1.30878],[-73.4536,1.30711],[-73.45411,1.30525],[-73.45151,1.30428],[-73.45365,1.30214],[-73.4543,1.298],[-73.45637,1.29709],[-73.45608,1.29457],[-73.45254,1.2945],[-73.44676,1.29081],[-73.44454,1.29162],[-73.4443,1.29524],[-73.44268,1.293],[-73.43979,1.29383],[-73.43676,1.29148],[-73.43616,1.29524],[-73.43327,1.2937],[-73.43385,1.29828],[-73.43144,1.29647],[-73.43055,1.29806],[-73.42975,1.29501],[-73.42825,1.29594],[-73.4283,1.29171],[-73.42687,1.29051],[-73.42755,1.28868],[-73.42542,1.28715],[-73.42621,1.28354],[-73.42226,1.28036],[-73.42536,1.27664],[-73.42456,1.27014],[-73.4256,1.26831],[-73.42827,1.26788],[-73.42524,1.26495],[-73.42706,1.26358],[-73.42893,1.26391],[-73.42993,1.26149],[-73.43189,1.2631],[-73.43187,1.25892],[-73.42701,1.25585],[-73.42568,1.25264],[-73.42493,1.2564],[-73.42333,1.25574],[-73.42258,1.25306],[-73.42012,1.25484],[-73.42037,1.25085],[-73.41697,1.25178],[-73.41865,1.24833],[-73.4172,1.24379],[-73.41417,1.24564],[-73.41293,1.24304],[-73.41402,1.24108],[-73.41121,1.24248],[-73.40874,1.24144],[-73.40936,1.23913],[-73.41275,1.23953],[-73.41388,1.23541],[-73.41531,1.23526],[-73.41504,1.23279],[-73.41252,1.23388],[-73.41092,1.23323],[-73.41386,1.23185],[-73.41618,1.22728],[-73.41526,1.22577],[-73.42032,1.2262],[-73.42198,1.2231],[-73.42417,1.22354],[-73.42069,1.21977],[-73.42305,1.21954],[-73.42309,1.21863],[-73.42072,1.21849],[-73.41572,1.21507],[-73.41719,1.21362],[-73.41489,1.21132],[-73.41709,1.2096],[-73.41677,1.20717],[-73.41282,1.20633],[-73.41263,1.20808],[-73.41526,1.20882],[-73.41197,1.20947],[-73.41036,1.20848],[-73.41039,1.2061],[-73.40727,1.20575],[-73.40812,1.20115],[-73.40968,1.19932],[-73.41071,1.19963],[-73.41068,1.20353],[-73.41325,1.20292],[-73.41296,1.19924],[-73.41789,1.19896],[-73.41725,1.1922],[-73.42016,1.19269],[-73.4211,1.19107],[-73.42003,1.18906],[-73.41868,1.19113],[-73.41685,1.19084],[-73.41757,1.18456],[-73.41293,1.18258],[-73.41301,1.18013],[-73.41124,1.18086],[-73.41185,1.17506],[-73.41097,1.17401],[-73.4053,1.17081],[-73.4013,1.17323],[-73.39902,1.17295],[-73.39597,1.17014],[-73.39417,1.17237],[-73.39299,1.17194],[-73.39471,1.16719],[-73.39338,1.15857],[-73.39486,1.15742],[-73.39736,1.15858],[-73.3975,1.15309],[-73.39565,1.15502],[-73.39193,1.15491],[-73.39154,1.15197],[-73.39425,1.15022],[-73.39271,1.14707],[-73.38609,1.1463],[-73.37479,1.14168],[-73.37377,1.1394],[-73.37714,1.13783],[-73.37285,1.13093],[-73.36262,1.12888],[-73.36061,1.12675],[-73.35732,1.12838],[-73.35716,1.12537],[-73.3603,1.12533],[-73.36073,1.124],[-73.35877,1.12278],[-73.35564,1.12417],[-73.35565,1.12025],[-73.34959,1.12225],[-73.34809,1.12061],[-73.34357,1.1234],[-73.34421,1.11745],[-73.33616,1.11187],[-73.33508,1.11202],[-73.3346,1.11417],[-73.33371,1.1132],[-73.33541,1.10807],[-73.33489,1.1052],[-73.33703,1.10559],[-73.33872,1.10886],[-73.34021,1.10669],[-73.3375,1.10511],[-73.33769,1.10406],[-73.34177,1.10452],[-73.34054,1.09918],[-73.33548,1.10255],[-73.33288,1.1011],[-73.33299,1.09767],[-73.33493,1.09719],[-73.33338,1.09499],[-73.33443,1.09391],[-73.33082,1.09076],[-73.32473,1.09012],[-73.31927,1.08682],[-73.32168,1.08559],[-73.32509,1.08664],[-73.32284,1.08082],[-73.31656,1.0812],[-73.31006,1.07565],[-73.30845,1.07621],[-73.30791,1.07952],[-73.30596,1.07641],[-73.30052,1.07473],[-73.30123,1.07256],[-73.30361,1.07257],[-73.30212,1.0702],[-73.29091,1.06545],[-73.28727,1.06458],[-73.28201,1.0668],[-73.28297,1.06125],[-73.28026,1.05895],[-73.28091,1.05197],[-73.27822,1.05043],[-73.27885,1.04729],[-73.27698,1.04656],[-73.26503,1.0483],[-73.26389,1.04685],[-73.26418,1.04401],[-73.26108,1.04564],[-73.25768,1.04432],[-73.25171,1.04886],[-73.25189,1.04381],[-73.25388,1.04189],[-73.25241,1.03979],[-73.24799,1.03912],[-73.24806,1.04185],[-73.24665,1.04251],[-73.24297,1.03875],[-73.24489,1.0366],[-73.24338,1.03338],[-73.24126,1.03432],[-73.23934,1.03261],[-73.29453,1.01211],[-73.29873,1.01405],[-73.29955,1.01778],[-73.29801,1.01915],[-73.29899,1.02],[-73.30071,1.02],[-73.30083,1.01822],[-73.30322,1.01727],[-73.30567,1.01901],[-73.30539,1.0158],[-73.30978,1.0162],[-73.30816,1.01673],[-73.30815,1.01847],[-73.30997,1.01746],[-73.3117,1.01996],[-73.31142,1.02264],[-73.31283,1.02164],[-73.31478,1.02376],[-73.31252,1.02544],[-73.31277,1.02844],[-73.31744,1.03018],[-73.31865,1.03227],[-73.32149,1.03329],[-73.32333,1.03228],[-73.32609,1.03486],[-73.32945,1.03581],[-73.32978,1.03758],[-73.32805,1.03848],[-73.33091,1.04218],[-73.33116,1.04109],[-73.33417,1.0404],[-73.33566,1.04135],[-73.34013,1.0395],[-73.33914,1.0431],[-73.34475,1.04148],[-73.34626,1.04282],[-73.34519,1.04476],[-73.34804,1.04565],[-73.34872,1.04441],[-73.3469,1.04389],[-73.34713,1.04296],[-73.35204,1.04065],[-73.35277,1.04622],[-73.36351,1.0435],[-73.3621,1.04585],[-73.36522,1.0465],[-73.36325,1.04881],[-73.36505,1.0521],[-73.36618,1.05187],[-73.36703,1.04831],[-73.36801,1.04847],[-73.36817,1.05103],[-73.36998,1.04894],[-73.37052,1.05053],[-73.37355,1.05083],[-73.37304,1.05181],[-73.37515,1.05387],[-73.37425,1.05629],[-73.37596,1.05549],[-73.37717,1.05632],[-73.37727,1.05756],[-73.37565,1.0583],[-73.37786,1.05991],[-73.37549,1.06038],[-73.37791,1.06271],[-73.37632,1.06627],[-73.37928,1.06501],[-73.3787,1.06683],[-73.42828,1.05562],[-73.43417,1.05611],[-73.43509,1.05288],[-73.43852,1.05036],[-73.44396,1.04905],[-73.44661,1.04998],[-73.44859,1.04805],[-73.45325,1.04784],[-73.45579,1.04451],[-73.46494,1.04374],[-73.46888,1.03619],[-73.4712,1.03416],[-73.47945,1.03291],[-73.48295,1.03039],[-73.48377,1.02823],[-73.49129,1.02604],[-73.49237,1.0242],[-73.49238,1.01162],[-73.5024,1.00621],[-73.50723,1.00147],[-73.50937,0.99765],[-73.5113,0.98869],[-73.51467,0.98484],[-73.51303,0.982],[-73.51359,0.97284],[-73.51778,0.96185],[-73.51615,0.95503],[-73.51836,0.94419],[-73.52114,0.94139],[-73.52102,0.93706],[-73.52483,0.93189],[-73.52372,0.92648],[-73.52714,0.92203],[-73.52683,0.91857],[-73.5294,0.91382],[-73.5279,0.91222],[-73.52913,0.90907],[-73.53817,0.90085],[-73.53864,0.89764],[-73.54029,0.89731],[-73.5402,0.89136],[-73.5375,0.89109],[-73.53656,0.88961],[-73.53783,0.88954],[-73.53731,0.8875],[-73.53911,0.88673],[-73.53776,0.8851],[-73.54064,0.88205],[-73.53761,0.87524],[-73.53925,0.87351],[-73.53662,0.87254],[-73.53563,0.87067],[-73.53818,0.8664],[-73.53624,0.86304],[-73.5367,0.85849],[-73.53793,0.85512],[-73.54021,0.85527],[-73.54139,0.84909],[-73.53963,0.84658],[-73.54504,0.83935],[-73.5507,0.83722],[-73.55127,0.83472],[-73.55016,0.83186],[-73.55251,0.83113],[-73.55313,0.8267],[-73.55605,0.82472],[-73.55478,0.82375],[-73.55674,0.82315],[-73.55754,0.81354],[-73.56077,0.81092],[-73.56683,0.80929],[-73.56748,0.80484],[-73.5665,0.80266],[-73.56844,0.80221],[-73.56753,0.8004],[-73.56857,0.79933],[-73.56724,0.799],[-73.56854,0.79795],[-73.56718,0.79742],[-73.56898,0.79247],[-73.5681,0.79058],[-73.56642,0.79064],[-73.568,0.78802],[-73.57095,0.7875],[-73.56794,0.78547],[-73.57008,0.7834],[-73.56846,0.78239],[-73.57244,0.78046],[-73.5729,0.77718],[-73.57497,0.77554],[-73.57718,0.77651],[-73.57589,0.77745],[-73.57653,0.77876],[-73.58062,0.77316],[-73.58439,0.77272],[-73.58399,0.76917],[-73.57987,0.76445],[-73.58163,0.76333],[-73.58125,0.76218],[-73.57927,0.76115],[-73.58247,0.75965],[-73.58254,0.75766],[-73.5807,0.75756],[-73.58158,0.75623],[-73.58377,0.75774],[-73.58494,0.7571],[-73.58252,0.75433],[-73.58096,0.74942],[-73.57829,0.7494],[-73.57845,0.74783],[-73.58022,0.7468],[-73.57786,0.74774],[-73.57742,0.74547],[-73.57581,0.74595],[-73.57687,0.74149],[-73.5742,0.74205],[-73.57707,0.73992],[-73.57639,0.73741],[-73.58002,0.73855],[-73.57851,0.73734],[-73.57873,0.73597],[-73.58017,0.73711],[-73.58165,0.73461],[-73.57889,0.73229],[-73.57954,0.73093],[-73.57818,0.72992],[-73.58092,0.72868],[-73.582,0.73135],[-73.58354,0.72886],[-73.58113,0.7231],[-73.57581,0.71877],[-73.57656,0.71741],[-73.58045,0.7176],[-73.5803,0.71492],[-73.57722,0.7144],[-73.57755,0.70989],[-73.579,0.70923],[-73.58067,0.71103],[-73.58141,0.7104],[-73.5798,0.70599],[-73.58099,0.70327],[-73.57781,0.70096],[-73.57707,0.70286],[-73.57537,0.70194],[-73.57704,0.69934],[-73.57415,0.69324],[-73.57764,0.69136],[-73.5745,0.69029],[-73.57751,0.68875],[-73.57735,0.68626],[-73.58226,0.68587],[-73.58145,0.68412],[-73.57999,0.68465],[-73.57968,0.68213],[-73.58515,0.68391],[-73.58611,0.68201],[-73.58324,0.67854],[-73.58551,0.67564],[-73.58758,0.67559],[-73.59116,0.68003],[-73.5919,0.67806],[-73.58978,0.67359],[-73.59502,0.6734],[-73.59653,0.67185],[-73.59877,0.67238],[-73.59846,0.66934],[-73.6016,0.66731],[-73.60496,0.66126],[-73.60698,0.66232],[-73.60847,0.65531],[-73.61124,0.65438],[-73.6123,0.65546],[-73.61393,0.65366],[-73.61375,0.65185],[-73.62174,0.65157],[-73.6196,0.64782],[-73.62478,0.64575],[-73.62322,0.64271],[-73.6252,0.64159],[-73.62238,0.64122],[-73.62223,0.63831],[-73.62483,0.6382],[-73.6266,0.63633],[-73.62771,0.64179],[-73.62808,0.63875],[-73.63047,0.6355],[-73.63094,0.6375],[-73.62964,0.64021],[-73.63068,0.64095],[-73.63305,0.63355],[-73.63477,0.63505],[-73.63743,0.63395],[-73.63402,0.62699],[-73.63718,0.62818],[-73.6393,0.6267],[-73.63748,0.62433],[-73.63786,0.62245],[-73.64044,0.62309],[-73.64117,0.62471],[-73.64298,0.62325],[-73.64264,0.62064],[-73.63683,0.6139],[-73.63904,0.61229],[-73.64332,0.61397],[-73.64102,0.61101],[-73.6446,0.60476],[-73.64156,0.6023],[-73.64521,0.59954],[-73.64269,0.59728],[-73.64243,0.59509],[-73.6459,0.59512],[-73.64621,0.59141],[-73.64993,0.5889],[-73.64966,0.58663],[-73.65124,0.58881],[-73.65356,0.58908],[-73.65286,0.59113],[-73.65583,0.589],[-73.65607,0.58743],[-73.65426,0.58544],[-73.65144,0.58589],[-73.65061,0.58397],[-73.65638,0.57984],[-73.65497,0.57758],[-73.65646,0.57737],[-73.65482,0.5754],[-73.65505,0.57289],[-73.66051,0.56976],[-73.66021,0.56719],[-73.65813,0.56757],[-73.65524,0.56576],[-73.66136,0.56423],[-73.6634,0.56],[-73.66265,0.55627],[-73.6658,0.55381],[-73.66543,0.55227],[-73.6615,0.55204],[-73.66115,0.55071],[-73.66968,0.54565],[-73.66842,0.54137],[-73.67068,0.54031],[-73.67287,0.5363],[-73.6764,0.53816],[-73.67649,0.54493],[-73.68418,0.54445],[-73.69325,0.54965],[-73.69988,0.55891],[-73.69985,0.56157],[-73.69767,0.56242],[-73.69232,0.55567],[-73.68971,0.55583],[-73.68596,0.5613],[-73.68469,0.57032],[-73.69229,0.57631],[-73.70088,0.58075],[-73.70033,0.58287],[-73.69616,0.58692],[-73.6987,0.59346],[-73.70445,0.59658],[-73.71585,0.597],[-73.71979,0.60099],[-73.71842,0.60402],[-73.71165,0.60353],[-73.70735,0.60456],[-73.70411,0.60765],[-73.70433,0.61076],[-73.70905,0.61358],[-73.71549,0.60901],[-73.71979,0.60934],[-73.72656,0.6166],[-73.7281,0.62162],[-73.73509,0.62244],[-73.7409,0.62834],[-73.74314,0.62692],[-73.74411,0.62153],[-73.74278,0.6196],[-73.73651,0.61951],[-73.73461,0.61666],[-73.73464,0.61293],[-73.73709,0.60804],[-73.74136,0.60502],[-73.74701,0.60656],[-73.74856,0.6192],[-73.74943,0.62087],[-73.75176,0.62117],[-73.75636,0.60266],[-73.75442,0.59288],[-73.75842,0.59198],[-73.7609,0.59376],[-73.76168,0.59673],[-73.7605,0.60583],[-73.76168,0.6071],[-73.76374,0.60674],[-73.76713,0.59957],[-73.76538,0.59406],[-73.76616,0.59152],[-73.76795,0.59116],[-73.76919,0.59458],[-73.77052,0.59461],[-73.77318,0.59152],[-73.77872,0.58925],[-73.77775,0.58771],[-73.77457,0.58683],[-73.77823,0.58332],[-73.77832,0.57933],[-73.77645,0.57446],[-73.77714,0.5715],[-73.78135,0.5701],[-73.78552,0.57053],[-73.7864,0.57304],[-73.7841,0.57652],[-73.78452,0.58063],[-73.78631,0.58042],[-73.78943,0.57676],[-73.79136,0.57679],[-73.79578,0.58496],[-73.7988,0.5865],[-73.80147,0.58423],[-73.80147,0.58224],[-73.79593,0.5809],[-73.79572,0.57945],[-73.80004,0.57655],[-73.80098,0.5737],[-73.80479,0.57068],[-73.80833,0.56466],[-73.81263,0.56402],[-73.81759,0.56124],[-73.82409,0.56278],[-73.82912,0.56133],[-73.83565,0.56333],[-73.83438,0.56732],[-73.83907,0.56853],[-73.83511,0.57177],[-73.83471,0.57373],[-73.83586,0.57501],[-73.84155,0.57507],[-73.845,0.58254],[-73.85138,0.58103],[-73.86167,0.57531],[-73.86959,0.57428],[-73.87153,0.57833],[-73.86775,0.58444],[-73.86923,0.58472],[-73.87374,0.5816],[-73.87598,0.59264],[-73.89274,0.59806],[-73.89504,0.60686],[-73.894,0.60783],[-73.88871,0.60701],[-73.88869,0.61052],[-73.88449,0.61407],[-73.88436,0.61766],[-73.89673,0.6219],[-73.89727,0.63179],[-73.90109,0.63536],[-73.90332,0.63533],[-73.90402,0.63221],[-73.90556,0.63133],[-73.91207,0.63348],[-73.9157,0.63778],[-73.92399,0.63512],[-73.92589,0.63115],[-73.92571,0.62276],[-73.93213,0.61641],[-73.93619,0.61608],[-73.93848,0.61854],[-73.9438,0.62029],[-73.95309,0.61818],[-73.95854,0.6154],[-73.96277,0.61569],[-73.96558,0.62138],[-73.97209,0.62353],[-73.97472,0.62773],[-73.97466,0.63009],[-73.97082,0.63049],[-73.97106,0.63236],[-73.98637,0.6356],[-73.99251,0.63974],[-73.99266,0.64186],[-73.98991,0.64619],[-73.98497,0.64855],[-73.98485,0.64991],[-73.98803,0.65172],[-73.98761,0.65508],[-73.99387,0.65532],[-73.99583,0.65805],[-73.99665,0.66243],[-74.00074,0.66497],[-74.00355,0.66367],[-73.99895,0.66023],[-73.9995,0.65793],[-74.00394,0.65953],[-74.01066,0.65744],[-74.01347,0.66128],[-74.01332,0.66373],[-74.00921,0.66307],[-74.01087,0.66945],[-74.00455,0.67574],[-74.00594,0.67765],[-74.01039,0.67874],[-74.01202,0.68261],[-74.0099,0.68322],[-74.00691,0.6814],[-74.00506,0.68588],[-74.00939,0.68906],[-74.0083,0.69619],[-74.01698,0.6952],[-74.02043,0.70197],[-74.01958,0.70824],[-74.01399,0.70775],[-74.01096,0.71132],[-74.01126,0.71459],[-74.01671,0.71311],[-74.02485,0.71525],[-74.02578,0.71807],[-74.02318,0.72254],[-74.02285,0.72805],[-74.02736,0.72481],[-74.02993,0.7256],[-74.03069,0.72781],[-74.02914,0.73226],[-74.03589,0.73195],[-74.04367,0.72812],[-74.0463,0.72838],[-74.04766,0.73114],[-74.0462,0.73519],[-74.04675,0.73719],[-74.05186,0.73888],[-74.05803,0.74511],[-74.05222,0.75204],[-74.05283,0.7551],[-74.05598,0.75661],[-74.07104,0.7573],[-74.06898,0.76187],[-74.07295,0.76505],[-74.07567,0.77022],[-74.07506,0.77146],[-74.07146,0.77231],[-74.07125,0.774],[-74.07473,0.77518],[-74.07703,0.77936],[-74.07631,0.78226],[-74.07252,0.78447],[-74.0718,0.78659],[-74.08317,0.78489],[-74.08375,0.78913],[-74.08656,0.79358],[-74.08354,0.79627],[-74.07764,0.79476],[-74.07446,0.79521],[-74.07634,0.80053],[-74.08021,0.80392],[-74.08475,0.81333],[-74.0832,0.81648],[-74.0839,0.82089],[-74.08275,0.82277],[-74.08012,0.82474],[-74.07549,0.82304],[-74.07552,0.82637],[-74.07739,0.82933],[-74.0767,0.83986],[-74.08069,0.84263],[-74.09175,0.84609],[-74.09148,0.84801],[-74.08711,0.84906],[-74.08981,0.85504],[-74.0909,0.85519],[-74.09725,0.849],[-74.10063,0.84199],[-74.10623,0.83969],[-74.11233,0.84463],[-74.11835,0.84597],[-74.11688,0.85188],[-74.12161,0.85388],[-74.13488,0.85592],[-74.13481,0.85782],[-74.13024,0.86136],[-74.12962,0.86532],[-74.13286,0.867],[-74.13727,0.8661],[-74.14269,0.8681],[-74.14661,0.86783],[-74.14709,0.8707],[-74.14495,0.87434],[-74.14973,0.87601],[-74.14945,0.88026],[-74.1513,0.88252],[-74.15897,0.87685],[-74.16248,0.86714],[-74.16803,0.86931],[-74.16833,0.87699],[-74.1751,0.88186],[-74.17454,0.88642],[-74.1792,0.89237],[-74.17624,0.90045],[-74.1777,0.90669],[-74.17646,0.91085],[-74.17674,0.91773],[-74.17893,0.91798],[-74.18088,0.91434],[-74.18043,0.90295],[-74.18926,0.90065],[-74.19453,0.90276],[-74.19369,0.90385],[-74.18978,0.90344],[-74.18932,0.90459],[-74.19299,0.90722],[-74.19729,0.90789],[-74.19894,0.9105],[-74.20253,0.90649],[-74.20774,0.90972],[-74.20648,0.9127],[-74.21028,0.9167],[-74.21158,0.92095],[-74.21011,0.92267],[-74.20407,0.92335],[-74.2048,0.92629],[-74.21786,0.92442],[-74.21863,0.92588],[-74.22231,0.92699],[-74.22377,0.93483],[-74.2263,0.93714],[-74.2286,0.9368],[-74.23125,0.93369],[-74.23791,0.92953],[-74.24003,0.92949],[-74.24023,0.93631],[-74.24627,0.94558],[-74.24521,0.94728],[-74.24045,0.94755],[-74.24022,0.94872],[-74.24717,0.95483],[-74.24863,0.95443],[-74.24897,0.95262],[-74.24611,0.94952],[-74.24663,0.94759],[-74.2529,0.95051],[-74.25315,0.95273],[-74.24975,0.9556],[-74.25067,0.95747],[-74.25711,0.9574],[-74.26179,0.95402],[-74.2657,0.95545],[-74.26693,0.96226],[-74.26332,0.96511],[-74.26195,0.96864],[-74.28092,0.97492],[-74.28459,0.97881],[-74.28142,0.98414],[-74.28388,0.98966],[-74.28649,0.98906],[-74.28638,0.99134],[-74.28787,0.98997],[-74.2891,0.99147],[-74.2937,0.99043],[-74.29541,0.99334],[-74.29334,0.99511],[-74.29591,0.9959],[-74.29734,0.99378],[-74.30749,0.99434],[-74.3073,0.99721],[-74.30501,0.99832],[-74.30563,0.99999],[-74.30686,1.00099],[-74.30735,0.99907],[-74.30879,0.99968],[-74.30937,1.00299],[-74.31332,1.00306],[-74.31593,1.00763],[-74.31964,1.00688],[-74.3215,1.00997],[-74.31928,1.01173],[-74.32005,1.01324],[-74.32362,1.0124],[-74.32252,1.01418],[-74.32308,1.01763],[-74.32485,1.01454],[-74.32605,1.01468],[-74.32539,1.02072],[-74.32983,1.01413],[-74.33089,1.01546],[-74.3339,1.01484],[-74.33559,1.01981],[-74.33774,1.02151],[-74.33934,1.02151],[-74.34076,1.01921],[-74.34278,1.02322],[-74.34048,1.02376],[-74.34211,1.02579],[-74.34188,1.02751],[-74.34678,1.03039],[-74.34591,1.03112],[-74.34455,1.02975],[-74.34381,1.03103],[-74.35273,1.03459],[-74.35129,1.0394],[-74.35472,1.04161],[-74.35488,1.04498],[-74.35776,1.0435],[-74.36117,1.04439],[-74.36093,1.04612],[-74.35773,1.04841],[-74.359,1.04992],[-74.35823,1.05175],[-74.36051,1.05075],[-74.36384,1.05306],[-74.36234,1.05523],[-74.36574,1.056],[-74.36618,1.05956],[-74.36827,1.05984],[-74.36764,1.05809],[-74.37027,1.05889],[-74.37008,1.06214],[-74.37402,1.06013],[-74.37622,1.06285],[-74.38062,1.06363],[-74.38049,1.06945],[-74.37795,1.07084],[-74.38063,1.07262],[-74.37982,1.07512],[-74.3816,1.07792],[-74.38032,1.0803],[-74.38249,1.08221],[-74.38003,1.08732],[-74.38226,1.08688],[-74.38349,1.08877],[-74.38259,1.08997],[-74.38401,1.09071],[-74.38187,1.09295],[-74.38453,1.09688],[-74.38266,1.09788],[-74.383,1.09917],[-74.38493,1.09849],[-74.38644,1.10124],[-74.3862,1.09893],[-74.38821,1.09845],[-74.39018,1.10172],[-74.3894,1.10313],[-74.3909,1.10399],[-74.39321,1.10237],[-74.39683,1.10598],[-74.40093,1.1049],[-74.40392,1.10561],[-74.4035,1.10784],[-74.40788,1.10821],[-74.40836,1.10967],[-74.41087,1.11],[-74.41202,1.11234],[-74.41398,1.11045],[-74.41579,1.11178],[-74.41869,1.11107],[-74.41983,1.11201],[-74.41825,1.11354],[-74.41875,1.11759],[-74.42035,1.11641],[-74.42375,1.11696],[-74.42346,1.11528],[-74.42593,1.11502],[-74.42722,1.11679],[-74.42891,1.11616],[-74.42927,1.11756],[-74.43086,1.11729],[-74.43373,1.11928],[-74.43528,1.12166],[-74.43427,1.12336],[-74.43594,1.12671],[-74.43732,1.12721],[-74.43862,1.1259],[-74.43919,1.12816],[-74.44064,1.12697],[-74.44139,1.12817],[-74.44276,1.1278],[-74.44313,1.12963],[-74.44455,1.12951],[-74.44549,1.13304],[-74.4441,1.13415],[-74.44442,1.13561],[-74.44602,1.13617],[-74.4444,1.13902],[-74.44737,1.14178],[-74.44846,1.14135],[-74.44806,1.14402],[-74.4504,1.14807],[-74.45476,1.14881],[-74.45733,1.15562],[-74.46024,1.15592],[-74.45964,1.15982],[-74.46134,1.16074],[-74.46302,1.15837],[-74.46405,1.16101],[-74.46496,1.15931],[-74.46589,1.15977],[-74.46642,1.16201],[-74.46522,1.16279],[-74.46658,1.16799],[-74.46541,1.17139],[-74.46645,1.1732],[-74.46759,1.1715],[-74.46938,1.17133],[-74.47036,1.17537],[-74.47319,1.17594],[-74.47643,1.17157],[-74.4808,1.17233],[-74.48227,1.17356],[-74.48148,1.1764],[-74.48323,1.18144],[-74.49193,1.18535],[-74.49223,1.18911],[-74.49379,1.19132],[-74.49707,1.19219],[-74.49802,1.1938],[-74.50327,1.1934],[-74.50553,1.1952],[-74.51106,1.19189],[-74.51462,1.1951],[-74.51809,1.19504],[-74.51883,1.19657],[-74.52538,1.19964],[-74.52733,1.20614],[-74.53436,1.21191],[-74.5396,1.21439],[-74.5424,1.21285],[-74.55544,1.21879],[-74.56208,1.22611],[-74.56672,1.22788],[-74.57255,1.23345],[-74.57257,1.23672],[-74.57076,1.23826],[-74.57237,1.2479],[-74.57781,1.25968],[-74.58142,1.26347],[-74.58606,1.26442],[-74.59019,1.2682],[-74.59554,1.27495],[-74.5981,1.28283],[-74.60272,1.28313],[-74.60684,1.2816],[-74.60896,1.28341],[-74.78746,1.56776],[-74.78239,1.57667],[-74.78273,1.58236],[-74.78713,1.58473],[-74.79494,1.58315],[-74.79869,1.58547],[-74.80251,1.59678],[-74.81139,1.60413],[-74.81277,1.60844],[-74.81131,1.61215],[-74.80406,1.61412],[-74.80253,1.61642],[-74.80339,1.61965],[-74.80746,1.62199],[-74.8078,1.62504],[-74.80205,1.63411],[-74.80174,1.64265],[-74.79516,1.65056],[-74.79931,1.66164],[-74.79787,1.66607],[-74.79485,1.66809],[-74.79812,1.67361],[-74.79678,1.67417],[-74.79527,1.68167],[-74.79758,1.68309],[-74.80021,1.68756],[-74.80336,1.68872],[-74.80326,1.69168],[-74.80488,1.69122],[-74.80168,1.69602],[-74.80298,1.69996],[-74.80136,1.70325],[-74.8027,1.70527],[-74.80086,1.70532],[-74.79986,1.70686],[-74.80349,1.70801],[-74.80234,1.70854],[-74.80279,1.7101],[-74.80588,1.71009],[-74.80526,1.71179],[-74.80729,1.71107],[-74.80915,1.71477],[-74.8135,1.71531],[-74.81424,1.71795],[-74.81317,1.71863],[-74.81528,1.71998],[-74.81405,1.72185],[-74.81518,1.72358],[-74.81263,1.7228],[-74.81239,1.72513],[-74.81415,1.72582],[-74.81251,1.72777],[-74.81352,1.73068],[-74.81551,1.73215],[-74.81503,1.73376],[-74.81821,1.73392],[-74.82017,1.73261],[-74.82509,1.73527],[-74.82867,1.73482],[-74.83202,1.73848],[-74.83543,1.73932],[-74.83495,1.74311],[-74.8391,1.74572],[-74.83998,1.74882],[-74.84432,1.75075],[-74.84704,1.75637],[-74.84672,1.75988],[-74.84964,1.76276],[-74.8487,1.76413],[-74.85051,1.76664],[-74.84774,1.77117],[-74.84747,1.77422],[-74.84568,1.7743],[-74.84309,1.77854],[-74.84425,1.78037],[-74.84387,1.78489],[-74.8333,1.7898],[-74.83355,1.79494],[-74.83585,1.79772],[-74.84399,1.79734],[-74.84862,1.80056],[-74.85397,1.81387],[-74.8568,1.81558],[-74.85604,1.84071],[-74.85787,1.84146],[-74.85934,1.84809],[-74.85555,1.85401],[-74.85882,1.8611],[-74.85803,1.86435],[-74.85966,1.86769],[-74.86169,1.86874],[-74.86399,1.87679],[-74.86946,1.88456],[-74.87068,1.88989],[-74.87673,1.90011],[-74.87637,1.90373],[-74.88158,1.90554],[-74.8835,1.90824],[-74.88338,1.91047],[-74.8786,1.91679],[-74.88338,1.92233],[-74.88779,1.92491],[-74.88977,1.92819],[-74.89597,1.93003],[-74.89975,1.93422],[-74.89721,1.94026],[-74.90124,1.94875],[-74.9016,1.9533],[-74.90586,1.95762],[-74.91743,1.96281],[-74.92227,1.97141],[-74.92297,1.97422],[-74.91971,1.98584],[-74.91936,1.99531],[-74.91753,1.99744],[-74.9189,1.99936],[-74.91878,2.0046],[-74.91737,2.00634],[-74.91818,2.01032],[-74.92052,2.0131],[-74.91965,2.01615],[-74.92061,2.01911],[-74.92412,2.02109],[-74.92273,2.02639],[-74.92753,2.02882],[-74.93216,2.03373],[-74.93496,2.04024],[-74.93898,2.04006],[-74.94229,2.03717],[-74.94354,2.03783],[-74.94376,2.03609],[-74.9486,2.03452],[-74.94852,2.03267],[-74.95365,2.03205],[-74.95658,2.03312],[-74.95359,2.03905],[-74.95546,2.04125],[-74.95377,2.04189],[-74.95202,2.0455],[-74.95027,2.0446],[-74.95086,2.04596],[-74.94649,2.04807],[-74.94809,2.05186],[-74.94524,2.05588],[-74.94685,2.05938],[-74.94543,2.06036],[-74.94534,2.06354],[-74.94203,2.06548],[-74.94305,2.06857],[-74.94502,2.06987],[-74.94097,2.07518],[-74.94136,2.08035],[-74.93722,2.08385],[-74.93963,2.08878],[-74.93852,2.09424],[-74.9421,2.09845],[-74.94679,2.09847],[-74.94928,2.09438],[-74.95341,2.09259],[-74.96098,2.08594],[-74.96512,2.0966],[-74.96556,2.10295],[-74.9693,2.10397],[-74.96844,2.10826],[-74.97393,2.10754],[-74.97596,2.10667],[-74.97583,2.10544],[-74.97771,2.10537],[-74.981,2.10595],[-74.98527,2.10945],[-74.98763,2.10933],[-74.992,2.11298],[-74.99873,2.11145],[-75.00115,2.11351],[-75.00262,2.12023],[-75.00586,2.12473],[-75.00406,2.12839],[-75.00535,2.13593],[-75.00391,2.13825],[-75.00895,2.14293],[-75.01303,2.14441],[-75.01436,2.14732],[-75.01921,2.14628],[-75.02206,2.14942],[-75.02627,2.15046],[-75.02589,2.15809],[-75.02392,2.16085],[-75.02579,2.16723],[-75.02248,2.1757],[-75.02434,2.17804],[-75.02396,2.18166],[-75.0208,2.18706],[-75.01802,2.18753],[-75.01397,2.20039],[-75.00917,2.20426],[-75.00503,2.20455],[-75.00343,2.20621],[-75.00346,2.21114],[-75.00764,2.21266],[-75.0063,2.22279],[-75.0076,2.22696],[-75.00707,2.22945],[-75.00924,2.23048],[-75.00551,2.23346],[-75.00312,2.23768],[-75.00413,2.23969],[-75.00305,2.24267],[-75.00013,2.24543],[-75.00533,2.25158],[-75.00685,2.25645],[-75.00399,2.25893],[-75.00422,2.26168],[-75.00206,2.2636],[-75.00182,2.27204],[-74.99916,2.27328],[-75.0016,2.2822],[-75.00375,2.283],[-75.00389,2.28419],[-75.00185,2.28553],[-74.9991,2.29113],[-74.98917,2.2987],[-74.99497,2.3101],[-74.9953,2.32228],[-74.98447,2.33372],[-74.98522,2.3428],[-74.98722,2.34672],[-74.99468,2.34759],[-74.99801,2.35063],[-75.00328,2.35276],[-75.01046,2.34937],[-75.00953,2.35445],[-75.00244,2.36008],[-74.99847,2.36691],[-74.99492,2.36782],[-74.99356,2.37043],[-74.99555,2.37658],[-74.9944,2.38547],[-74.99288,2.38765],[-74.99373,2.39059],[-74.99704,2.39354],[-74.99747,2.39938],[-74.99546,2.40182],[-74.99525,2.40474],[-74.99078,2.40726],[-74.99318,2.41287],[-74.993,2.41679],[-74.99175,2.41836],[-74.99248,2.41953],[-74.98971,2.4239],[-74.98884,2.42944],[-74.98427,2.43144],[-74.98317,2.43509],[-74.99032,2.44109],[-74.9967,2.44925],[-75.0029,2.45221],[-75.00439,2.45209],[-75.00596,2.44987],[-75.01077,2.45025],[-75.01242,2.45542],[-75.01216,2.46593],[-75.00962,2.47079],[-75.01196,2.47255],[-75.01563,2.48975],[-75.01002,2.4973],[-75.01139,2.5095],[-75.00584,2.51369],[-75.00827,2.52038],[-75.00833,2.52404],[-75.002,2.52666],[-74.99623,2.53966],[-74.98832,2.54555],[-74.9854,2.54937],[-74.9845,2.55223],[-74.9877,2.55963],[-74.98049,2.56486],[-74.98049,2.56847],[-74.9849,2.57104],[-74.98783,2.57706],[-74.99731,2.58654],[-75.00754,2.58802],[-75.01885,2.59142],[-75.02378,2.58992],[-75.02874,2.59031],[-75.03265,2.59244],[-75.03758,2.59778],[-75.03728,2.60215],[-75.03933,2.60533],[-75.04934,2.61044],[-75.04938,2.62297],[-75.05459,2.62847],[-75.06929,2.62716],[-75.07464,2.6252],[-75.0868,2.62645],[-75.0933,2.62414],[-75.10369,2.62619],[-75.10997,2.61961],[-75.11145,2.61528],[-75.118,2.6086],[-75.12021,2.60682],[-75.12675,2.60616],[-75.13324,2.6013],[-75.13437,2.59905],[-75.13269,2.59515],[-75.14274,2.5877],[-75.15366,2.58199],[-75.15493,2.57738],[-75.15422,2.57372],[-75.15644,2.57086],[-75.15756,2.56363],[-75.16199,2.56141],[-75.16247,2.55633],[-75.17046,2.5507],[-75.17102,2.54609],[-75.17426,2.5418],[-75.17625,2.5364],[-75.17973,2.53426],[-75.18139,2.53108],[-75.18116,2.5283],[-75.17263,2.52383],[-75.17524,2.52066],[-75.17755,2.51311],[-75.18111,2.50707],[-75.18435,2.50636],[-75.19446,2.51194],[-75.20118,2.51132],[-75.20569,2.50854],[-75.21406,2.51078],[-75.2275,2.51127],[-75.2279,2.50658],[-75.22569,2.50253],[-75.22728,2.50022],[-75.22657,2.49561],[-75.23038,2.48632],[-75.2311,2.48091],[-75.23696,2.47178],[-75.24582,2.46225],[-75.24788,2.45788],[-75.25334,2.45296],[-75.25035,2.44684],[-75.25059,2.44445],[-75.25953,2.44113],[-75.26293,2.43406],[-75.268,2.43049],[-75.26871,2.42516],[-75.27054,2.42246],[-75.27614,2.4247],[-75.27954,2.42271],[-75.28097,2.41827],[-75.28713,2.40973],[-75.2879,2.40295],[-75.28628,2.39641],[-75.28982,2.38917],[-75.29437,2.38209],[-75.30165,2.37886],[-75.30387,2.37123],[-75.30607,2.36939],[-75.31015,2.36161],[-75.31638,2.35884],[-75.32554,2.36492],[-75.32962,2.36531],[-75.33324,2.35953],[-75.34449,2.32869],[-75.34809,2.32378],[-75.35713,2.32009],[-75.36142,2.32122],[-75.36548,2.32645],[-75.36979,2.32658],[-75.37316,2.32488],[-75.37636,2.31901],[-75.38628,2.31458],[-75.39288,2.32597],[-75.39443,2.33306],[-75.40034,2.33788],[-75.40129,2.34569],[-75.40333,2.3497],[-75.4089,2.35187],[-75.4201,2.35201],[-75.42756,2.35498],[-75.42989,2.35945],[-75.42957,2.3645],[-75.43083,2.36841],[-75.43239,2.37072],[-75.43785,2.37301],[-75.43991,2.37891],[-75.44508,2.38561],[-75.4456,2.39273],[-75.44158,2.39964],[-75.442,2.40313],[-75.43956,2.4075],[-75.43833,2.41363],[-75.43887,2.41657],[-75.43151,2.43034],[-75.43393,2.44171],[-75.42917,2.44653],[-75.42916,2.45252]]]}},{"type":"Feature","properties":{"zona":"Occidente","color":"#B57BE8"},"geometry":{"type":"Polygon","coordinates":[[[-76.29906,2.28249],[-76.29504,2.27792],[-76.28883,2.27426],[-76.2849,2.27454],[-76.27611,2.27104],[-76.27022,2.26213],[-76.266,2.26088],[-76.25575,2.25006],[-76.24976,2.24686],[-76.24897,2.24189],[-76.24168,2.23121],[-76.23873,2.22787],[-76.23257,2.22587],[-76.22592,2.21945],[-76.22124,2.21324],[-76.21951,2.20762],[-76.21742,2.20602],[-76.2125,2.20526],[-76.20927,2.1984],[-76.20244,2.19819],[-76.19604,2.19546],[-76.17858,2.19797],[-76.16718,2.19729],[-76.16288,2.19887],[-76.15778,2.19808],[-76.14798,2.20122],[-76.14005,2.20902],[-76.1363,2.22088],[-76.13134,2.22308],[-76.12114,2.22481],[-76.14645,2.29402],[-76.12614,2.38001],[-76.12241,2.38274],[-76.12022,2.39053],[-76.1089,2.39621],[-76.10361,2.40584],[-76.09881,2.40569],[-76.09774,2.41002],[-76.09336,2.41005],[-76.08925,2.41592],[-76.08095,2.4156],[-76.06297,2.41059],[-76.05691,2.40654],[-76.04608,2.40452],[-76.0408,2.40066],[-76.03254,2.40263],[-76.02792,2.41629],[-76.02735,2.42216],[-76.02396,2.42477],[-76.0213,2.43362],[-76.02085,2.441],[-76.02202,2.44337],[-76.01665,2.45033],[-76.01409,2.45141],[-76.00955,2.45645],[-76.00553,2.45834],[-76.00331,2.46189],[-76.0042,2.46344],[-75.9986,2.467],[-75.99804,2.46943],[-75.99932,2.47054],[-75.99733,2.47164],[-75.99466,2.47703],[-75.98921,2.47879],[-75.98966,2.48053],[-75.98749,2.4823],[-75.9858,2.49304],[-75.98134,2.49796],[-75.97958,2.50343],[-75.97586,2.50394],[-75.97299,2.50115],[-75.96868,2.50116],[-75.9683,2.49937],[-75.96236,2.4983],[-75.96382,2.50028],[-75.96312,2.50403],[-75.96518,2.50715],[-75.95895,2.51292],[-75.95978,2.51515],[-75.96334,2.51588],[-75.96065,2.51784],[-75.96209,2.52515],[-75.96177,2.53131],[-75.95605,2.53235],[-75.95896,2.53509],[-75.95809,2.5401],[-75.96075,2.54487],[-75.96643,2.54509],[-75.96874,2.54987],[-75.97469,2.55192],[-75.97505,2.55619],[-75.97217,2.56077],[-75.97359,2.56278],[-75.97581,2.56325],[-75.98051,2.56142],[-75.98935,2.56176],[-76.00001,2.5694],[-76.00456,2.57122],[-76.01051,2.57692],[-76.02507,2.58651],[-76.02979,2.59895],[-76.02994,2.60252],[-76.03339,2.60842],[-76.03599,2.61016],[-76.0409,2.6101],[-76.042,2.61152],[-76.04131,2.61298],[-76.03573,2.61342],[-76.03112,2.6189],[-76.02014,2.62417],[-76.01652,2.62431],[-76.01598,2.62608],[-76.01161,2.62918],[-76.0093,2.63396],[-76.01646,2.63547],[-76.02597,2.6316],[-76.03098,2.63561],[-76.03115,2.63755],[-76.02952,2.63943],[-76.02992,2.64281],[-76.03617,2.64727],[-76.03629,2.65067],[-76.03875,2.65439],[-76.03879,2.65825],[-76.03636,2.66217],[-76.03793,2.66924],[-76.04452,2.67021],[-76.04607,2.67304],[-76.05208,2.66884],[-76.05739,2.6676],[-76.06358,2.67862],[-76.06873,2.67358],[-76.07087,2.66878],[-76.07476,2.66631],[-76.08382,2.66576],[-76.0951,2.6583],[-76.10167,2.64949],[-76.10798,2.6547],[-76.11354,2.66595],[-76.11815,2.66573],[-76.12427,2.66239],[-76.12977,2.65817],[-76.13262,2.65381],[-76.13456,2.65358],[-76.14948,2.65533],[-76.1512,2.65755],[-76.15533,2.6594],[-76.15852,2.66337],[-76.15875,2.66598],[-76.16154,2.66802],[-76.16438,2.66813],[-76.16756,2.65993],[-76.17178,2.65688],[-76.17413,2.65331],[-76.17839,2.63201],[-76.18225,2.62626],[-76.1879,2.62382],[-76.19421,2.62813],[-76.20013,2.62846],[-76.204,2.63435],[-76.20686,2.63429],[-76.21156,2.63168],[-76.22324,2.64346],[-76.23887,2.64689],[-76.24508,2.65062],[-76.24971,2.65169],[-76.25456,2.65906],[-76.24946,2.66785],[-76.25108,2.67471],[-76.25054,2.67927],[-76.24739,2.68537],[-76.24189,2.69055],[-76.2399,2.69736],[-76.23393,2.70489],[-76.23014,2.71308],[-76.2289,2.71904],[-76.22978,2.73091],[-76.23115,2.73387],[-76.22947,2.74036],[-76.22605,2.74439],[-76.22689,2.74865],[-76.22584,2.75195],[-76.22467,2.75192],[-76.22611,2.75525],[-76.2247,2.75798],[-76.22245,2.75872],[-76.22288,2.76102],[-76.22135,2.76131],[-76.22006,2.76962],[-76.21577,2.77524],[-76.21156,2.77608],[-76.20738,2.77391],[-76.20151,2.77502],[-76.19265,2.77049],[-76.1868,2.77179],[-76.184,2.77001],[-76.17418,2.77702],[-76.17682,2.78025],[-76.19091,2.78337],[-76.19313,2.7863],[-76.19709,2.78829],[-76.20736,2.7867],[-76.21544,2.78965],[-76.21828,2.7887],[-76.2229,2.7897],[-76.22501,2.78838],[-76.22884,2.78957],[-76.23878,2.78243],[-76.24581,2.78241],[-76.24502,2.78446],[-76.24058,2.78623],[-76.23931,2.795],[-76.23222,2.80674],[-76.22038,2.81088],[-76.21532,2.81505],[-76.2153,2.81723],[-76.21764,2.8182],[-76.21908,2.82061],[-76.21828,2.82295],[-76.22064,2.83116],[-76.21947,2.83442],[-76.22299,2.83813],[-76.22158,2.84806],[-76.22425,2.85445],[-76.21318,2.85555],[-76.20591,2.85908],[-76.20681,2.86422],[-76.20573,2.86776],[-76.19993,2.87435],[-76.19272,2.87865],[-76.18992,2.8793],[-76.18427,2.87703],[-76.18039,2.87822],[-76.16916,2.87848],[-76.15919,2.88634],[-76.1526,2.88841],[-76.15149,2.89123],[-76.15334,2.90296],[-76.14562,2.9049],[-76.14355,2.91568],[-76.1261,2.91431],[-76.12287,2.91654],[-76.12006,2.92114],[-76.11714,2.92258],[-76.11722,2.92594],[-76.11951,2.93065],[-76.11689,2.93246],[-76.11562,2.93808],[-76.11242,2.94392],[-76.11214,2.94762],[-76.11563,2.95075],[-76.1115,2.95753],[-76.11247,2.95911],[-76.11639,2.95997],[-76.12079,2.96335],[-76.11558,2.97091],[-76.10943,2.97385],[-76.10662,2.97395],[-76.1041,2.97888],[-76.10564,2.98304],[-76.10316,2.9927],[-76.10042,2.99683],[-76.0986,3.00359],[-76.09537,3.00548],[-76.0939,3.00268],[-76.0916,3.00291],[-76.08972,3.00855],[-76.08553,3.01135],[-76.08587,3.02191],[-76.08169,3.02509],[-76.08226,3.03083],[-76.0803,3.0316],[-76.07783,3.02972],[-76.07599,3.03228],[-76.07767,3.04017],[-76.0769,3.04342],[-76.07405,3.04532],[-76.06885,3.04528],[-76.06489,3.04691],[-76.06052,3.0459],[-76.05816,3.0422],[-76.05591,3.04417],[-76.05236,3.04236],[-76.04633,3.04386],[-76.04409,3.04173],[-76.04559,3.03972],[-76.04434,3.03662],[-76.04461,3.03245],[-76.04015,3.02882],[-76.03924,3.02537],[-76.0396,3.02177],[-76.04182,3.01829],[-76.0413,3.01588],[-76.03586,3.01352],[-76.03374,3.00931],[-76.0208,3.00389],[-76.02167,2.99983],[-76.02025,2.99506],[-76.02633,2.9876],[-76.02901,2.97807],[-76.02917,2.97192],[-76.02611,2.96818],[-76.02506,2.96058],[-76.02873,2.95469],[-76.02899,2.94049],[-75.89524,2.85539],[-75.89372,2.85204],[-75.89136,2.85128],[-75.88539,2.84099],[-75.88243,2.83977],[-75.87918,2.83377],[-75.8741,2.83295],[-75.86908,2.83419],[-75.85451,2.84189],[-75.8456,2.84298],[-75.84128,2.84023],[-75.83718,2.84103],[-75.82775,2.83716],[-75.82727,2.83838],[-75.82543,2.83824],[-75.82206,2.83533],[-75.82027,2.831],[-75.81641,2.82953],[-75.81612,2.82706],[-75.81729,2.82543],[-75.81396,2.82177],[-75.80645,2.82089],[-75.80549,2.81873],[-75.80714,2.80944],[-75.80479,2.80812],[-75.80794,2.8016],[-75.80736,2.79728],[-75.80863,2.78916],[-75.81052,2.78698],[-75.8117,2.77874],[-75.80634,2.77152],[-75.80509,2.76745],[-75.80291,2.76858],[-75.80128,2.76547],[-75.79772,2.76511],[-75.79354,2.76154],[-75.7913,2.7617],[-75.78981,2.75844],[-75.78285,2.76306],[-75.77914,2.76072],[-75.77677,2.75414],[-75.77153,2.75481],[-75.76649,2.75221],[-75.76393,2.75239],[-75.7512,2.74249],[-75.7541,2.73622],[-75.74783,2.7192],[-75.75125,2.71721],[-75.75204,2.71375],[-75.75407,2.71283],[-75.75301,2.70804],[-75.75505,2.70553],[-75.75553,2.70202],[-75.75368,2.70099],[-75.75244,2.69743],[-75.75526,2.69848],[-75.75716,2.69568],[-75.75721,2.6823],[-75.75832,2.68045],[-75.76105,2.68026],[-75.76081,2.67898],[-75.76002,2.67696],[-75.75212,2.67644],[-75.74861,2.67203],[-75.74557,2.67216],[-75.74487,2.6737],[-75.74042,2.66829],[-75.73758,2.66946],[-75.73448,2.66728],[-75.72306,2.66353],[-75.72027,2.6551],[-75.72144,2.64222],[-75.72346,2.63798],[-75.72146,2.63601],[-75.72124,2.63215],[-75.70393,2.62816],[-75.69996,2.62268],[-75.69322,2.62559],[-75.68654,2.63085],[-75.67468,2.63582],[-75.67126,2.63946],[-75.66619,2.64211],[-75.65644,2.64508],[-75.65118,2.63502],[-75.6482,2.63682],[-75.64549,2.63506],[-75.64949,2.6189],[-75.64868,2.61179],[-75.6503,2.60903],[-75.64883,2.60207],[-75.65032,2.59325],[-75.65324,2.5885],[-75.6506,2.58189],[-75.64997,2.57483],[-75.64903,2.57454],[-75.65062,2.57256],[-75.64714,2.57076],[-75.6454,2.56808],[-75.64452,2.56512],[-75.64526,2.56042],[-75.64403,2.55943],[-75.64153,2.56048],[-75.64039,2.55616],[-75.64023,2.54461],[-75.64194,2.54227],[-75.63902,2.53908],[-75.63599,2.5401],[-75.62977,2.53757],[-75.62847,2.53916],[-75.62653,2.53644],[-75.62272,2.5372],[-75.62214,2.53833],[-75.61559,2.53899],[-75.61385,2.53837],[-75.61336,2.53651],[-75.61063,2.53701],[-75.60364,2.53383],[-75.60229,2.53561],[-75.60021,2.53583],[-75.59747,2.53999],[-75.59422,2.53979],[-75.58974,2.54198],[-75.58433,2.54905],[-75.56866,2.48801],[-75.56967,2.48611],[-75.56262,2.48075],[-75.55833,2.46912],[-75.56097,2.46447],[-75.56871,2.46231],[-75.5717,2.45894],[-75.56583,2.45416],[-75.56366,2.44831],[-75.56837,2.44337],[-75.57213,2.44276],[-75.5739,2.44013],[-75.58277,2.4379],[-75.5869,2.43488],[-75.58761,2.43031],[-75.59227,2.42578],[-75.59239,2.42216],[-75.59988,2.41676],[-75.60355,2.40943],[-75.60404,2.4053],[-75.60728,2.40343],[-75.60946,2.40024],[-75.61089,2.39109],[-75.60838,2.38168],[-75.61145,2.38007],[-75.61509,2.3741],[-75.6282,2.38011],[-75.6328,2.37934],[-75.6376,2.38091],[-75.64582,2.37601],[-75.64724,2.36992],[-75.65773,2.36658],[-75.66143,2.36379],[-75.66184,2.35927],[-75.66454,2.35622],[-75.67474,2.3499],[-75.67732,2.34987],[-75.6813,2.34643],[-75.68076,2.34337],[-75.68227,2.33825],[-75.68027,2.33026],[-75.68415,2.3254],[-75.6884,2.33044],[-75.68935,2.33352],[-75.694,2.33072],[-75.70428,2.34121],[-75.70385,2.34308],[-75.70546,2.34518],[-75.71475,2.35038],[-75.71933,2.35555],[-75.72059,2.35909],[-75.72451,2.36075],[-75.73173,2.36016],[-75.73302,2.35659],[-75.73494,2.35652],[-75.74586,2.35905],[-75.74853,2.36208],[-75.74819,2.36323],[-75.75154,2.36269],[-75.75085,2.36101],[-75.75636,2.36194],[-75.75759,2.36329],[-75.76309,2.35743],[-75.7653,2.35692],[-75.76859,2.35837],[-75.77228,2.36313],[-75.78083,2.3639],[-75.78662,2.36149],[-75.78524,2.34756],[-75.78786,2.33828],[-75.78595,2.33428],[-75.78149,2.33029],[-75.78365,2.32944],[-75.78354,2.3268],[-75.78205,2.32596],[-75.78363,2.32681],[-75.78587,2.32896],[-75.787,2.32841],[-75.78849,2.33025],[-75.79982,2.32754],[-75.80277,2.33157],[-75.80671,2.33286],[-75.8085,2.3317],[-75.80944,2.33302],[-75.80809,2.33401],[-75.8104,2.33487],[-75.80899,2.33764],[-75.81142,2.34576],[-75.82064,2.35163],[-75.82573,2.35341],[-75.82833,2.35292],[-75.82999,2.35079],[-75.8287,2.3487],[-75.83003,2.34846],[-75.83003,2.1997],[-75.83093,2.20464],[-75.83275,2.20736],[-75.83731,2.21227],[-75.84119,2.21431],[-75.84304,2.21496],[-75.84997,2.21229],[-75.85314,2.21273],[-75.85545,2.20948],[-75.85829,2.20882],[-75.85724,2.21144],[-75.87316,2.2207],[-75.88121,2.21655],[-75.88389,2.21645],[-75.88948,2.21053],[-75.89261,2.20299],[-75.89606,2.20085],[-75.89918,2.20152],[-75.90265,2.19989],[-75.90753,2.20022],[-75.91342,2.20608],[-75.92525,2.19633],[-75.92696,2.1926],[-75.93428,2.18853],[-75.93988,2.18319],[-75.94513,2.18191],[-75.9492,2.17824],[-75.96319,2.17578],[-75.96391,2.17298],[-75.97152,2.17024],[-75.97312,2.16562],[-75.97715,2.16363],[-75.97567,2.16184],[-75.97738,2.15448],[-75.97353,2.1501],[-75.97309,2.14403],[-75.97942,2.14055],[-75.98571,2.13163],[-75.99886,2.12254],[-76.00146,2.11884],[-76.0102,2.11135],[-76.01074,2.10954],[-76.0274,2.09591],[-76.03268,2.0979],[-76.04181,2.09365],[-76.0505,2.09307],[-76.05759,2.09046],[-76.0642,2.09428],[-76.07311,2.09461],[-76.08243,2.10173],[-76.0866,2.10153],[-76.09581,2.09761],[-76.10389,2.09707],[-76.11358,2.10696],[-76.11524,2.11947],[-76.11798,2.12129],[-76.11878,2.12397],[-76.12856,2.12971],[-76.13563,2.12897],[-76.15023,2.11808],[-76.15168,2.11044],[-76.16081,2.10901],[-76.1681,2.11091],[-76.17162,2.11686],[-76.17161,2.12723],[-76.17299,2.12888],[-76.18846,2.1299],[-76.19776,2.13319],[-76.20128,2.13788],[-76.20353,2.15103],[-76.20944,2.1585],[-76.22087,2.16787],[-76.2249,2.17052],[-76.2391,2.17483],[-76.26249,2.17801],[-76.27104,2.18434],[-76.28738,2.19244],[-76.28876,2.19345],[-76.29004,2.19839],[-76.30019,2.20427],[-76.3047,2.20888],[-76.31453,2.21181],[-76.3157,2.21506],[-76.32119,2.21827],[-76.32823,2.22927],[-76.3325,2.23206],[-76.33622,2.23274],[-76.33732,2.2354],[-76.34248,2.23827],[-76.34696,2.24851],[-76.34708,2.25279],[-76.34917,2.25592],[-76.35248,2.25724],[-76.35424,2.26395],[-76.36048,2.2707],[-76.34379,2.27211],[-76.33324,2.27774],[-76.32328,2.28112],[-76.30829,2.2813],[-76.3029,2.28367],[-76.29906,2.28249]]]}},{"type":"Feature","properties":{"zona":"Sur","color":"#F0C040"},"geometry":{"type":"Polygon","coordinates":[[[-76.16975,1.58799],[-76.17128,1.58737],[-76.17398,1.58201],[-76.17797,1.5795],[-76.18312,1.57377],[-76.18739,1.57483],[-76.19146,1.57192],[-76.19589,1.57504],[-76.1989,1.57513],[-76.2024,1.57865],[-76.19964,1.58672],[-76.20067,1.59202],[-76.20968,1.6001],[-76.2101,1.60402],[-76.21193,1.60655],[-76.20823,1.61354],[-76.20951,1.62018],[-76.20857,1.62584],[-76.21499,1.63556],[-76.21177,1.63797],[-76.21156,1.64072],[-76.2149,1.6457],[-76.22517,1.65504],[-76.22792,1.66194],[-76.22641,1.66468],[-76.22695,1.66611],[-76.22851,1.66721],[-76.23191,1.66609],[-76.23497,1.6683],[-76.23677,1.67328],[-76.24143,1.67834],[-76.24111,1.68144],[-76.24225,1.68309],[-76.24628,1.68192],[-76.24948,1.67697],[-76.25323,1.67405],[-76.26442,1.67714],[-76.27234,1.6745],[-76.28336,1.67769],[-76.28719,1.68536],[-76.29091,1.68555],[-76.29645,1.68843],[-76.30368,1.6902],[-76.30729,1.68941],[-76.31723,1.68372],[-76.32326,1.67152],[-76.32302,1.66815],[-76.3256,1.66309],[-76.34136,1.66472],[-76.34834,1.66181],[-76.35403,1.66663],[-76.36347,1.66994],[-76.36852,1.66866],[-76.37078,1.66437],[-76.37571,1.66357],[-76.37906,1.66541],[-76.38229,1.66915],[-76.37827,1.67571],[-76.3796,1.68086],[-76.3754,1.68423],[-76.37546,1.69496],[-76.37759,1.69943],[-76.37381,1.70721],[-76.37502,1.71715],[-76.36978,1.73253],[-76.37349,1.73449],[-76.37325,1.73756],[-76.37118,1.74081],[-76.37191,1.74252],[-76.38086,1.74712],[-76.38263,1.74676],[-76.40706,1.73058],[-76.41437,1.71728],[-76.41663,1.71642],[-76.41949,1.71777],[-76.42668,1.72697],[-76.42704,1.73371],[-76.43051,1.74101],[-76.42966,1.74297],[-76.42362,1.74665],[-76.42094,1.75615],[-76.42538,1.76614],[-76.42782,1.77613],[-76.43513,1.7918],[-76.44907,1.79755],[-76.45243,1.80305],[-76.46253,1.80919],[-76.46734,1.81397],[-76.47477,1.81636],[-76.47904,1.82029],[-76.48878,1.82581],[-76.49829,1.82569],[-76.50211,1.82956],[-76.50618,1.8285],[-76.51003,1.83303],[-76.51271,1.83364],[-76.51831,1.83146],[-76.52231,1.82818],[-76.52138,1.82493],[-76.53045,1.82354],[-76.53334,1.82907],[-76.54543,1.83998],[-76.54863,1.84076],[-76.55388,1.83828],[-76.55731,1.83916],[-76.55954,1.84394],[-76.56868,1.84973],[-76.56927,1.8558],[-76.57777,1.85921],[-76.57999,1.86242],[-76.58823,1.86597],[-76.59031,1.86816],[-76.59205,1.88141],[-76.58424,1.88632],[-76.58282,1.89293],[-76.57872,1.89873],[-76.58373,1.90103],[-76.58583,1.90446],[-76.58626,1.90884],[-76.59201,1.91361],[-76.59504,1.91997],[-76.6031,1.92061],[-76.60951,1.92352],[-76.6116,1.9258],[-76.61928,1.92654],[-76.61906,1.93155],[-76.61415,1.93729],[-76.61415,1.94011],[-76.61046,1.94673],[-76.61504,1.94996],[-76.62202,1.95867],[-76.62418,1.96779],[-76.62426,1.97385],[-76.62046,1.97626],[-76.61584,1.98561],[-76.61228,1.98987],[-76.61068,1.99501],[-76.60003,1.99739],[-76.59235,2.00552],[-76.58936,2.00557],[-76.58915,2.00259],[-76.58738,2.00041],[-76.57923,2.00175],[-76.5791,2.01022],[-76.57251,2.01974],[-76.57385,2.02988],[-76.58034,2.02912],[-76.58606,2.03464],[-76.58629,2.03998],[-76.58406,2.04658],[-76.57728,2.05654],[-76.58392,2.08228],[-76.58242,2.0867],[-76.59006,2.09476],[-76.59021,2.10803],[-76.58548,2.11018],[-76.57542,2.11801],[-76.57042,2.12663],[-76.55901,2.13363],[-76.55339,2.13969],[-76.54181,2.134],[-76.52475,2.13566],[-76.52004,2.1342],[-76.5134,2.13531],[-76.50748,2.13277],[-76.50323,2.12621],[-76.48742,2.12906],[-76.48421,2.12513],[-76.4806,2.11086],[-76.4746,2.10918],[-76.47221,2.10208],[-76.46743,2.10001],[-76.46379,2.10158],[-76.45433,2.11243],[-76.4483,2.11635],[-76.44266,2.11917],[-76.43092,2.12039],[-76.42528,2.12785],[-76.42431,2.13167],[-76.43088,2.14122],[-76.43746,2.16111],[-76.43689,2.16622],[-76.43182,2.17157],[-76.43674,2.17792],[-76.43527,2.17965],[-76.43596,2.1816],[-76.43426,2.18729],[-76.4303,2.18967],[-76.41724,2.19231],[-76.40473,2.20054],[-76.39805,2.22488],[-76.39744,2.23106],[-76.3892,2.24212],[-76.3892,2.24471],[-76.39124,2.24732],[-76.38509,2.26851],[-76.38052,2.27123],[-76.37377,2.27909],[-76.36845,2.27909],[-76.36347,2.27735],[-76.36048,2.2707],[-76.35424,2.26395],[-76.35248,2.25724],[-76.34917,2.25592],[-76.34708,2.25279],[-76.34696,2.24851],[-76.34248,2.23827],[-76.33732,2.2354],[-76.33622,2.23274],[-76.3325,2.23206],[-76.32823,2.22927],[-76.32119,2.21827],[-76.3157,2.21506],[-76.31453,2.21181],[-76.3047,2.20888],[-76.30019,2.20427],[-76.29004,2.19839],[-76.28876,2.19345],[-76.28738,2.19244],[-76.27104,2.18434],[-76.26249,2.17801],[-76.2391,2.17483],[-76.2249,2.17052],[-76.22087,2.16787],[-76.20944,2.1585],[-76.20353,2.15103],[-76.20303,2.14407],[-76.20002,2.13522],[-76.19311,2.13079],[-76.17299,2.12888],[-76.17161,2.12723],[-76.17162,2.11686],[-76.16948,2.11268],[-76.1681,2.11091],[-76.16206,2.10926],[-76.15168,2.11044],[-76.15023,2.11808],[-76.13563,2.12897],[-76.12856,2.12971],[-76.11878,2.12397],[-76.11798,2.12129],[-76.11524,2.11947],[-76.11358,2.10696],[-76.10389,2.09707],[-76.09581,2.09761],[-76.0866,2.10153],[-76.08243,2.10173],[-76.07311,2.09461],[-76.0642,2.09428],[-76.05759,2.09046],[-76.0505,2.09307],[-76.04181,2.09365],[-76.03268,2.0979],[-76.0274,2.09591],[-76.01074,2.10954],[-76.0102,2.11135],[-76.00146,2.11884],[-75.99886,2.12254],[-75.98429,2.13325],[-75.74179,2.13325],[-75.74051,2.12924],[-75.74329,2.12146],[-75.7458,2.11951],[-75.74732,2.11416],[-75.75576,2.11209],[-75.75882,2.11062],[-75.75961,2.10881],[-75.76237,2.10985],[-75.76534,2.10692],[-75.76958,2.10824],[-75.77406,2.11369],[-75.77643,2.12071],[-75.78474,2.12224],[-75.79341,2.12124],[-75.79963,2.11672],[-75.79892,2.1079],[-75.80022,2.10578],[-75.8119,2.10168],[-75.81737,2.10356],[-75.81712,2.09898],[-75.81876,2.09675],[-75.8276,2.09372],[-75.8324,2.0935],[-75.83996,2.08645],[-75.84142,2.08018],[-75.84583,2.07543],[-75.84435,2.06953],[-75.84913,2.06908],[-75.84695,2.06281],[-75.84735,2.05875],[-75.85607,2.04909],[-75.85944,2.04864],[-75.85991,2.04688],[-75.85564,2.04576],[-75.85138,2.03805],[-75.84758,2.03545],[-75.84772,2.03273],[-75.83863,2.0321],[-75.83622,2.02666],[-75.83267,2.02362],[-75.83138,2.01848],[-75.8281,2.01575],[-75.8286,1.99938],[-75.823,1.9997],[-75.82084,1.99747],[-75.83574,1.98834],[-75.83708,1.98503],[-75.83543,1.98303],[-75.84056,1.9771],[-75.84049,1.97446],[-75.84191,1.97427],[-75.84114,1.97013],[-75.83677,1.96649],[-75.83462,1.96284],[-75.83943,1.96088],[-75.85049,1.96343],[-75.85829,1.95548],[-75.8673,1.95169],[-75.87165,1.94374],[-75.87801,1.94323],[-75.87964,1.93904],[-75.88657,1.93774],[-75.88909,1.9327],[-75.88914,1.92806],[-75.89276,1.92467],[-75.89427,1.92116],[-75.89314,1.91743],[-75.89569,1.91192],[-75.89875,1.90966],[-75.90351,1.90989],[-75.90799,1.90594],[-75.91133,1.90548],[-75.91522,1.90132],[-75.91828,1.90095],[-75.91991,1.89985],[-75.92009,1.89781],[-75.9288,1.89262],[-75.92751,1.88487],[-75.93452,1.87932],[-75.9375,1.87293],[-75.69299,1.87293],[-75.69783,1.87106],[-75.70197,1.86621],[-75.70343,1.85065],[-75.70791,1.83968],[-75.71831,1.83192],[-75.72536,1.82937],[-75.73067,1.82335],[-75.73341,1.80827],[-75.73169,1.80007],[-75.73402,1.79648],[-75.73428,1.78652],[-75.73683,1.78286],[-75.74468,1.77871],[-75.75705,1.77627],[-75.76103,1.76938],[-75.76755,1.76659],[-75.7702,1.76668],[-75.77365,1.76216],[-75.77971,1.76112],[-75.78672,1.76313],[-75.79187,1.75979],[-75.7994,1.74999],[-75.80203,1.74979],[-75.80664,1.75186],[-75.81314,1.75153],[-75.81645,1.75362],[-75.83032,1.7474],[-75.83728,1.74023],[-75.84164,1.72815],[-75.8407,1.7253],[-75.84402,1.72265],[-75.84733,1.72217],[-75.85349,1.72565],[-75.85823,1.72348],[-75.8621,1.71944],[-75.87051,1.71665],[-75.87334,1.71425],[-75.88334,1.7133],[-75.89163,1.71691],[-75.89995,1.7171],[-75.90366,1.71676],[-75.91224,1.71196],[-75.92065,1.70421],[-75.92119,1.69945],[-75.92351,1.69635],[-75.92717,1.69466],[-75.93081,1.69493],[-75.9337,1.69296],[-75.93583,1.68799],[-75.93829,1.68672],[-75.93868,1.68238],[-75.94275,1.67538],[-75.95186,1.67027],[-75.95265,1.6638],[-75.96279,1.65916],[-75.97247,1.66112],[-75.97999,1.65759],[-75.98188,1.65266],[-75.97847,1.64826],[-75.97753,1.64236],[-75.98001,1.63781],[-75.98128,1.63149],[-75.98085,1.62436],[-75.98343,1.62133],[-75.98916,1.61957],[-75.99406,1.61475],[-75.9999,1.61583],[-76.00603,1.61475],[-76.01102,1.60978],[-76.01258,1.60537],[-76.01555,1.60367],[-76.0165,1.60013],[-76.02014,1.59694],[-76.02352,1.59085],[-76.03052,1.5873],[-76.03438,1.58277],[-76.04013,1.58161],[-76.04635,1.58434],[-76.05562,1.58034],[-76.06238,1.58239],[-76.06515,1.58573],[-76.06839,1.5846],[-76.07458,1.58483],[-76.0762,1.58081],[-76.08097,1.57754],[-76.08745,1.57715],[-76.09032,1.5682],[-76.11367,1.55709],[-76.11991,1.55213],[-76.12331,1.55741],[-76.12438,1.56607],[-76.1373,1.5747],[-76.14504,1.57532],[-76.15288,1.58302],[-76.16975,1.58799]]]}}]}